{"type": "FeatureCollection", "crs": {"type": "name", "properties": {"name": "urn:ogc:def:crs:EPSG::28992"}}, "features": [{"type": "Feature", "id": "gemeentegebied.ffd9a5db-c90b-48ee-8129-272ae92867e5", "properties": {"identificatie": "GM1945", "naam": "Berg en Dal", "code": "1945", "ligtInProvincieCode": "25", "ligtInProvincieNaam": "Gelderland"}, "bbox": [188920.482, 417066.631, 201580.569, 432756.004], "geometry": {"type": "MultiPolygon", "coordinates": [[[[193062.602, 417130.694], [193067.284, 417130.969], [193147.044, 417156.001], [193150.726, 417154.049], [193168.0, 417145.65], [193178.591, 417140.474], [193183.0, 417138.386], [193194.409, 417134.847], [193204.864, 417131.444], [193228.045, 417125.547], [193229.044, 417129.82], [193237.217, 417127.99], [193240.59, 417127.235], [193250.271, 417124.786], [193378.963, 417146.148], [193379.388, 417146.218], [193384.801, 417147.117], [193411.145, 417151.499], [193453.565, 417158.556], [193463.382, 417162.287], [193473.289, 417166.427], [193488.331, 417174.932], [193494.495, 417177.371], [193528.688, 417190.902], [193603.129, 417220.294], [193628.567, 417236.394], [193645.165, 417246.899], [193669.161, 417257.635], [193686.747, 417271.458], [193737.051, 417310.517], [193745.004, 417315.974], [193768.634, 417333.027], [193834.39, 417380.274], [193858.72, 417397.898], [193885.05, 417416.971], [193890.408, 417420.852], [193919.323, 417441.799], [193938.28, 417426.539], [193961.003, 417435.639], [193975.546, 417438.372], [193986.908, 417441.786], [194003.224, 417446.929], [194030.845, 417462.916], [194031.354, 417463.211], [194036.444, 417465.667], [194038.534, 417467.577], [194039.352, 417469.44], [194039.806, 417472.849], [194037.94, 417481.618], [194035.574, 417490.07], [194030.433, 417511.38], [194030.244, 417512.529], [194028.885, 417520.786], [194024.144, 417577.906], [194023.916, 417583.131], [194023.958, 417593.674], [194024.067, 417610.351], [194024.27, 417618.85], [194024.745, 417629.906], [194025.264, 417641.981], [194032.213, 417662.252], [194041.54, 417692.738], [194042.976, 417697.43], [194056.874, 417740.925], [194071.179, 417787.057], [194079.509, 417813.518], [194092.285, 417854.105], [194088.568, 417861.637], [194083.566, 417870.724], [194070.517, 417889.394], [194065.198, 417894.436], [194056.879, 417902.339], [194050.059, 417908.698], [194039.921, 417918.645], [194025.464, 417932.907], [194001.733, 417956.344], [194013.093, 417967.938], [194018.561, 417973.484], [194018.837, 417973.763], [194021.147, 417976.098], [194145.959, 418102.263], [194217.333, 418174.605], [194218.381, 418175.637], [194225.294, 418182.437], [194226.11, 418183.265], [194259.02, 418216.655], [194259.535, 418217.178], [194283.277, 418241.107], [194285.193, 418243.038], [194285.412, 418243.259], [194286.581, 418244.443], [194308.865, 418267.026], [194333.117, 418291.489], [194356.671, 418280.076], [194400.854, 418258.137], [194428.442, 418244.171], [194437.891, 418239.155], [194456.899, 418254.189], [194495.558, 418285.705], [194523.681, 418308.631], [194540.762, 418322.633], [194554.4, 418333.814], [194587.974, 418361.039], [194596.347, 418367.818], [194632.832, 418397.361], [194655.565, 418415.811], [194716.349, 418464.775], [194716.608, 418464.984], [194776.074, 418514.685], [194776.644, 418515.141], [194791.08, 418526.688], [194831.637, 418559.13], [194840.731, 418566.461], [194841.472, 418567.058], [194856.608, 418579.259], [194946.555, 418651.754], [195022.291, 418712.925], [195022.481, 418713.094], [195026.511, 418716.684], [195076.509, 418756.855], [195157.285, 418822.204], [195157.665, 418822.511], [195217.477, 418870.928], [195271.412, 418914.549], [195294.175, 418932.855], [195340.579, 418970.534], [195347.969, 418976.506], [195379.992, 419002.748], [195385.709, 419007.007], [195412.522, 419028.96], [195444.6, 419054.75], [195460.455, 419067.647], [195474.743, 419079.286], [195480.897, 419084.3], [195481.283, 419084.609], [195487.069, 419089.237], [195497.402, 419097.503], [195518.896, 419114.946], [195519.062, 419115.081], [195554.335, 419100.357], [195577.459, 419091.135], [195598.266, 419107.419], [195610.524, 419117.09], [195613.722, 419119.443], [195633.294, 419131.504], [195641.702, 419136.563], [195658.015, 419146.379], [195658.493, 419146.667], [195676.707, 419157.832], [195689.545, 419165.328], [195696.011, 419167.157], [195709.391, 419170.505], [195731.048, 419171.64], [195762.007, 419172.703], [195773.25, 419171.717], [195789.282, 419170.116], [195808.271, 419167.909], [195824.948, 419176.232], [195841.26, 419184.924], [195855.268, 419194.896], [195871.455, 419206.55], [195887.349, 419221.42], [195910.69, 419242.543], [195917.717, 419249.613], [195918.025, 419249.923], [195926.166, 419256.99], [196014.796, 419337.343], [196033.396, 419354.205], [196051.556, 419370.793], [196098.965, 419413.241], [196133.194, 419444.042], [196142.235, 419452.229], [196186.533, 419491.903], [196187.212, 419492.511], [196213.645, 419516.179], [196243.195, 419542.592], [196246.311, 419545.377], [196308.052, 419601.663], [196339.021, 419629.551], [196411.405, 419694.691], [196507.657, 419781.625], [196521.261, 419793.812], [196531.658, 419803.127], [196643.739, 419904.102], [196645.239, 419905.453], [196646.153, 419907.006], [196648.537, 419911.746], [196649.797, 419914.429], [196653.793, 419922.936], [196677.706, 420040.75], [196691.86, 420128.39], [196697.433, 420147.122], [196710.025, 420191.371], [196714.811, 420207.971], [196719.753, 420224.998], [196733.903, 420270.706], [196741.348, 420296.065], [196749.656, 420347.864], [196717.275, 420325.201], [196659.277, 420284.399], [196645.592, 420298.445], [196630.96, 420313.461], [196612.727, 420332.046], [196595.814, 420349.222], [196562.767, 420383.187], [196489.061, 420458.059], [196465.538, 420481.999], [196426.233, 420522.501], [196384.412, 420565.244], [196346.637, 420586.564], [196314.361, 420604.536], [196262.468, 420631.717], [196217.59, 420655.717], [196076.508, 420726.277], [196099.18, 420763.961], [196135.299, 420822.521], [196149.96, 420846.414], [196189.744, 420911.249], [196165.443, 420936.668], [196169.779, 420953.332], [196183.53, 421007.602], [196190.34, 421034.372], [196195.241, 421054.722], [196195.412, 421055.528], [196196.869, 421062.414], [196197.268, 421064.153], [196209.788, 421118.677], [196223.513, 421183.263], [196215.712, 421181.437], [196209.225, 421179.983], [196208.677, 421181.098], [196204.883, 421188.823], [196204.48, 421189.755], [196194.393, 421213.111], [196145.914, 421286.26], [196173.712, 421315.62], [196208.652, 421351.896], [196272.784, 421414.858], [196294.244, 421436.008], [196321.523, 421462.966], [196331.445, 421472.491], [196429.255, 421577.042], [196447.014, 421595.562], [196457.797, 421606.745], [196465.66, 421616.044], [196474.0, 421626.117], [196484.689, 421638.532], [196494.351, 421649.711], [196505.564, 421662.283], [196529.33, 421688.737], [196537.089, 421697.373], [196537.139, 421697.429], [196545.454, 421706.076], [196624.512, 421787.81], [196614.942, 421802.938], [196614.556, 421803.584], [196610.502, 421810.37], [196610.038, 421810.972], [196609.405, 421811.793], [196577.15, 421845.967], [196534.836, 421817.383], [196524.873, 421809.698], [196508.445, 421796.976], [196449.582, 421752.009], [196283.453, 421883.12], [196234.643, 421921.515], [196226.163, 421991.424], [196195.098, 421975.817], [196169.336, 421962.494], [196157.254, 421956.221], [196151.061, 421953.098], [196143.996, 421949.338], [196026.0, 421887.377], [196012.055, 421923.294], [196008.66, 421932.163], [195974.369, 422012.704], [195973.226, 422015.389], [195962.202, 422041.853], [195956.951, 422045.888], [195951.967, 422049.492], [195945.375, 422048.56], [195940.638, 422048.252], [195930.998, 422058.691], [195929.659, 422060.14], [195924.884, 422064.949], [195902.886, 422076.793], [195888.511, 422084.901], [195882.462, 422087.988], [195876.894, 422089.603], [195870.683, 422090.868], [195865.349, 422090.525], [195859.667, 422089.702], [195853.076, 422087.839], [195828.9, 422080.903], [195809.964, 422075.544], [195796.214, 422071.153], [195605.667, 422008.788], [195527.175, 421986.268], [195524.414, 422096.47], [195514.261, 422165.915], [195500.942, 422258.285], [195500.811, 422259.151], [195485.556, 422359.776], [195485.44, 422360.539], [195484.746, 422365.124], [195487.291, 422366.009], [195531.523, 422384.211], [195559.838, 422401.111], [195555.624, 422403.256], [195427.206, 422468.631], [195390.944, 422486.205], [195429.78, 422561.072], [195451.973, 422603.748], [195452.556, 422604.819], [195460.843, 422620.029], [195463.714, 422625.766], [195518.152, 422728.862], [195522.635, 422737.351], [195540.478, 422771.577], [195548.367, 422786.952], [195668.997, 423005.63], [195672.987, 423012.613], [195568.636, 423083.281], [195542.985, 423100.608], [195542.492, 423100.941], [195539.822, 423102.797], [195521.61, 423115.165], [195534.3, 423128.875], [195506.889, 423161.125], [195529.822, 423177.222], [195827.441, 423389.312], [195768.43, 423432.23], [195764.375, 423441.505], [195762.208, 423445.804], [195742.96, 423460.15], [195738.882, 423463.649], [195727.1, 423473.473], [195711.639, 423486.206], [195697.482, 423497.368], [195689.514, 423500.817], [195683.863, 423503.377], [195669.177, 423503.519], [195661.27, 423506.151], [195655.787, 423508.825], [195638.375, 423517.545], [195630.858, 423521.053], [195610.818, 423530.942], [195602.763, 423534.7], [195597.451, 423537.121], [195590.18, 423541.898], [195586.299, 423545.286], [195577.346, 423553.463], [195562.019, 423567.268], [195550.811, 423580.419], [195553.498, 423583.704], [195531.58, 423606.544], [195511.621, 423627.029], [195482.281, 423656.505], [195483.148, 423657.581], [195480.744, 423659.145], [195455.414, 423678.703], [195447.451, 423684.852], [195422.758, 423705.084], [195404.578, 423720.028], [195380.79, 423739.645], [195371.555, 423747.877], [195334.721, 423781.735], [195329.621, 423786.383], [195321.005, 423799.691], [195306.592, 423821.222], [195305.304, 423823.256], [195291.803, 423844.582], [195291.419, 423845.133], [195287.966, 423850.083], [195286.524, 423850.948], [195275.511, 423859.452], [195267.444, 423865.408], [195258.822, 423870.008], [195249.635, 423878.046], [195248.935, 423878.659], [195228.42, 423897.788], [195216.917, 423908.289], [195212.497, 423912.294], [195196.829, 423926.604], [195182.879, 423938.625], [195181.16, 423940.106], [195149.456, 423967.425], [195148.9, 423967.904], [195146.411, 423970.049], [195145.982, 423970.503], [195112.355, 424006.149], [195103.098, 424014.436], [195102.439, 424015.025], [195056.799, 424055.934], [195035.693, 424084.837], [195021.71, 424105.187], [195020.593, 424108.918], [195020.559, 424109.033], [195018.779, 424114.977], [195015.763, 424139.785], [195015.149, 424141.226], [195012.192, 424148.162], [194996.657, 424139.028], [194983.627, 424131.64], [194938.704, 424187.891], [194930.795, 424197.861], [194924.569, 424207.862], [194925.664, 424208.82], [194909.458, 424233.383], [194905.358, 424243.661], [194902.37, 424266.678], [194901.472, 424267.292], [194875.742, 424290.319], [194852.259, 424310.78], [194821.803, 424336.568], [194786.161, 424367.445], [194751.126, 424396.94], [194725.972, 424419.145], [194716.422, 424427.177], [194697.474, 424439.836], [194651.378, 424470.472], [194535.757, 424541.837], [194491.403, 424569.139], [194477.923, 424580.588], [194469.106, 424588.517], [194429.116, 424614.878], [194432.811, 424616.681], [194412.106, 424624.895], [194384.397, 424635.81], [194381.631, 424636.9], [194355.872, 424648.253], [194351.877, 424647.028], [194349.204, 424646.772], [194331.02, 424659.647], [194313.51, 424677.783], [194302.377, 424694.75], [194284.162, 424724.544], [194282.435, 424727.197], [194279.472, 424731.748], [194278.025, 424743.736], [194262.657, 424755.692], [194251.733, 424760.887], [194243.51, 424763.657], [194233.627, 424766.943], [194100.478, 424781.712], [194091.211, 424782.388], [194063.899, 424785.757], [194063.83, 424785.766], [194025.453, 424790.855], [193912.241, 424806.427], [193879.915, 424812.027], [193876.076, 424812.401], [193867.069, 424815.408], [193772.081, 424845.67], [193757.99, 424853.499], [193722.996, 424866.848], [193717.188, 424869.544], [193698.919, 424879.231], [193695.464, 424882.215], [193671.246, 424898.777], [193695.253, 424896.058], [193702.593, 424898.629], [193706.034, 424901.029], [193709.605, 424908.043], [193711.969, 424916.985], [193714.79, 424924.293], [193719.558, 424932.207], [193728.808, 424944.61], [193741.637, 424962.241], [193749.694, 424973.001], [193754.017, 424979.573], [193757.735, 424987.63], [193764.564, 425005.079], [193769.903, 425018.775], [193724.238, 425057.284], [193693.525, 425025.997], [193646.251, 425067.518], [193603.042, 425105.672], [193572.348, 425132.61], [193573.501, 425176.344], [193591.501, 425213.054], [193602.349, 425232.393], [193603.134, 425233.663], [193589.873, 425244.89], [193567.165, 425258.753], [193536.396, 425300.951], [193527.922, 425311.916], [193526.6, 425313.746], [193533.184, 425320.339], [193536.163, 425323.524], [193603.243, 425392.088], [193664.703, 425454.407], [193672.642, 425462.501], [193673.792, 425463.416], [193680.65, 425460.88], [193725.098, 425413.06], [193759.6, 425376.495], [193781.522, 425352.862], [193787.789, 425360.361], [193852.85, 425441.581], [193885.25, 425405.696], [193915.862, 425374.928], [193963.378, 425324.501], [194004.051, 425281.665], [194044.529, 425319.337], [194076.257, 425347.744], [194136.983, 425407.04], [194198.556, 425358.819], [194264.626, 425424.018], [194298.755, 425456.341], [194314.093, 425470.868], [194318.292, 425474.845], [194328.883, 425485.08], [194367.907, 425522.792], [194280.907, 425593.243], [194083.748, 425751.229], [193918.648, 425883.054], [193742.557, 426024.639], [193586.487, 426149.371], [193460.355, 426249.919], [193458.586, 426251.46], [193508.725, 426310.81], [193510.407, 426312.801], [193487.912, 426332.039], [193533.086, 426380.944], [193536.681, 426384.836], [193561.728, 426411.951], [193648.044, 426522.46], [193656.506, 426523.181], [193659.677, 426526.966], [193662.097, 426529.855], [193678.148, 426549.014], [193822.633, 426721.475], [194055.976, 427000.0], [194059.837, 427004.609], [194131.993, 427090.737], [194134.162, 427093.326], [194165.479, 427130.707], [194210.82, 427184.827], [194213.532, 427188.064], [194451.469, 427472.072], [194499.168, 427529.007], [194512.045, 427544.378], [194648.064, 427706.734], [194649.12, 427707.994], [194653.739, 427713.508], [194671.32, 427734.494], [194678.021, 427742.493], [194683.152, 427748.541], [194702.823, 427732.601], [194767.19, 427678.77], [194865.207, 427600.175], [194967.409, 427520.559], [195038.141, 427470.564], [195077.805, 427447.233], [195098.063, 427435.965], [195178.187, 427391.353], [195231.704, 427362.679], [195240.336, 427358.425], [195246.021, 427356.204], [195250.686, 427355.206], [195255.238, 427355.163], [195269.563, 427356.387], [195274.346, 427356.796], [195300.105, 427362.492], [195309.298, 427364.525], [195315.701, 427365.941], [195324.263, 427367.834], [195327.883, 427366.23], [195333.724, 427363.356], [195368.505, 427362.515], [195386.2, 427361.666], [195401.538, 427360.237], [195429.31, 427355.961], [195451.149, 427351.24], [195481.088, 427343.124], [195525.596, 427331.25], [195527.963, 427330.619], [195532.934, 427329.65], [195539.196, 427328.429], [195551.105, 427327.501], [195598.687, 427320.012], [195610.11, 427316.95], [195611.075, 427316.579], [195616.254, 427314.591], [195619.798, 427313.23], [195645.083, 427302.278], [195685.146, 427281.73], [195707.86, 427270.475], [195721.247, 427263.841], [195750.994, 427252.584], [195761.386, 427249.231], [195765.252, 427247.984], [195769.118, 427246.737], [195788.332, 427241.727], [195831.419, 427231.447], [195876.165, 427221.664], [195906.422, 427215.105], [195906.692, 427215.046], [195908.221, 427214.738], [195909.438, 427214.492], [195913.459, 427213.681], [195916.164, 427213.135], [195919.092, 427212.544], [195943.554, 427207.608], [195992.818, 427195.883], [196024.241, 427186.381], [196061.513, 427173.964], [196091.217, 427163.364], [196112.948, 427154.96], [196119.859, 427152.288], [196148.09, 427139.241], [196174.054, 427127.114], [196204.612, 427110.193], [196228.007, 427096.719], [196240.05, 427091.263], [196249.303, 427087.407], [196257.562, 427084.057], [196269.608, 427080.258], [196286.895, 427074.962], [196287.43, 427074.853], [196291.317, 427074.06], [196316.041, 427069.015], [196326.365, 427067.11], [196338.895, 427065.225], [196347.344, 427063.932], [196348.444, 427063.751], [196357.084, 427062.326], [196367.81, 427061.656], [196401.538, 427061.563], [196420.87, 427062.966], [196460.362, 427066.623], [196525.388, 427073.329], [196566.928, 427078.44], [196568.434, 427078.656], [196595.123, 427082.481], [196622.319, 427086.767], [196682.431, 427095.348], [196688.407, 427096.073], [196722.162, 427100.168], [196745.379, 427102.985], [196800.101, 427106.463], [196809.002, 427105.237], [196828.497, 427101.649], [196829.149, 427101.529], [196841.712, 427098.961], [196848.306, 427098.293], [196856.127, 427098.793], [196864.68, 427100.229], [196932.22, 427116.874], [196965.199, 427125.694], [197005.912, 427139.956], [197030.888, 427150.743], [197036.1, 427153.972], [197037.614, 427154.91], [197039.184, 427155.883], [197043.542, 427158.583], [197090.852, 427187.606], [197107.117, 427196.097], [197127.076, 427205.121], [197162.809, 427219.255], [197204.167, 427230.862], [197218.554, 427234.899], [197294.146, 427250.774], [197371.629, 427269.828], [197381.169, 427273.202], [197390.101, 427276.96], [197390.597, 427277.149], [197394.398, 427278.599], [197398.73, 427281.823], [197402.034, 427283.61], [197406.561, 427286.859], [197410.291, 427290.22], [197417.025, 427297.89], [197428.597, 427305.467], [197495.713, 427345.672], [197540.541, 427372.603], [197541.697, 427374.545], [197540.432, 427379.769], [197534.93, 427392.664], [197539.082, 427395.241], [197543.94, 427398.256], [197550.684, 427402.443], [197629.113, 427448.113], [197635.97, 427451.285], [197672.548, 427464.698], [197709.372, 427479.527], [197768.503, 427508.156], [197794.75, 427520.864], [197836.702, 427538.59], [197883.937, 427555.688], [197922.419, 427569.618], [197935.403, 427576.55], [197945.6, 427585.528], [197976.461, 427614.472], [197985.175, 427622.061], [198011.216, 427644.531], [198013.068, 427646.022], [198017.884, 427649.899], [198026.793, 427656.689], [198090.138, 427701.629], [198135.931, 427737.85], [198206.201, 427802.012], [198244.809, 427839.571], [198245.492, 427840.236], [198248.178, 427842.849], [198250.355, 427844.967], [198252.044, 427846.571], [198254.119, 427848.543], [198255.171, 427847.713], [198256.495, 427846.605], [198274.71, 427860.536], [198307.001, 427884.797], [198315.638, 427892.491], [198324.558, 427902.576], [198332.322, 427913.417], [198339.124, 427926.639], [198346.841, 427949.743], [198353.7, 427973.735], [198360.438, 428003.829], [198366.246, 428040.399], [198376.137, 428112.643], [198380.684, 428138.931], [198386.318, 428162.77], [198400.168, 428207.321], [198412.873, 428245.118], [198418.077, 428255.811], [198423.712, 428264.77], [198434.908, 428277.311], [198444.023, 428285.888], [198444.982, 428286.555], [198459.673, 428296.77], [198471.7, 428302.531], [198482.418, 428306.357], [198491.896, 428309.157], [198504.907, 428309.263], [198527.895, 428307.428], [198558.915, 428305.423], [198598.709, 428305.1], [198613.465, 428305.958], [198621.203, 428306.991], [198627.831, 428309.833], [198662.636, 428335.54], [198703.028, 428366.805], [198769.477, 428419.375], [198794.315, 428438.728], [198854.352, 428475.059], [198859.383, 428478.276], [198860.908, 428479.251], [198972.648, 428550.705], [199008.351, 428572.108], [199040.275, 428590.629], [199102.462, 428626.351], [199154.545, 428656.25], [199181.906, 428671.105], [199235.86, 428700.04], [199237.231, 428696.911], [199237.517, 428696.258], [199240.161, 428690.289], [199341.348, 428561.134], [199414.262, 428470.447], [199447.56, 428432.666], [199481.782, 428393.837], [199505.935, 428457.352], [199515.518, 428479.805], [199531.377, 428505.715], [199537.38, 428511.799], [199548.992, 428500.587], [199569.817, 428483.001], [199573.731, 428479.695], [199609.099, 428459.511], [199681.607, 428429.705], [199687.423, 428427.546], [199698.559, 428454.05], [199709.611, 428478.259], [199725.825, 428515.305], [199736.082, 428534.788], [199747.508, 428553.811], [199755.8, 428566.545], [199766.323, 428581.399], [199772.594, 428588.925], [199774.647, 428591.981], [199781.166, 428596.546], [199793.303, 428605.282], [199817.074, 428622.243], [199825.311, 428628.717], [199834.957, 428636.648], [199850.112, 428651.256], [199976.27, 428785.509], [200018.805, 428830.773], [200019.467, 428831.582], [200021.908, 428834.567], [200025.596, 428839.075], [200040.896, 428855.863], [200097.405, 428917.865], [200103.002, 428921.758], [200109.721, 428926.432], [200143.176, 428946.424], [200147.839, 428938.37], [200212.089, 428989.23], [200262.115, 429020.793], [200296.284, 429042.968], [200355.143, 429079.962], [200370.03, 429088.134], [200415.087, 429115.152], [200423.725, 429120.519], [200441.583, 429132.085], [200510.782, 429182.218], [200536.258, 429201.085], [200551.289, 429213.306], [200577.806, 429235.51], [200605.48, 429257.39], [200625.018, 429270.943], [200686.844, 429310.69], [200795.242, 429369.606], [200828.688, 429387.733], [200837.391, 429392.907], [200849.882, 429402.542], [200862.352, 429412.161], [200887.775, 429434.049], [201030.492, 429520.733], [201034.438, 429543.156], [200987.794, 429620.682], [200898.814, 429775.974], [200877.222, 429813.22], [200840.035, 429875.022], [200795.282, 429942.768], [200774.629, 429973.709], [200758.826, 429997.275], [200758.726, 429997.457], [200828.274, 430037.427], [200878.001, 430054.689], [200935.982, 430077.308], [200959.921, 430082.079], [200987.188, 430084.67], [200987.303, 430084.681], [201031.462, 430088.876], [201130.764, 430100.947], [201171.513, 430104.813], [201270.919, 430106.967], [201320.733, 430110.145], [201321.135, 430113.168], [201333.487, 430210.309], [201334.063, 430214.842], [201344.699, 430298.515], [201356.159, 430388.384], [201357.011, 430395.066], [201357.458, 430398.181], [201369.719, 430483.593], [201372.134, 430500.418], [201374.708, 430518.346], [201390.666, 430516.112], [201457.914, 430506.698], [201466.216, 430571.799], [201466.263, 430571.783], [201470.541, 430605.358], [201475.613, 430629.321], [201478.301, 430638.869], [201498.335, 430710.031], [201524.17, 430795.904], [201580.569, 430983.026], [201402.237, 431103.744], [201334.012, 431149.311], [201208.263, 431233.436], [200909.465, 431408.971], [200840.034, 431434.755], [200775.33, 431455.678], [200726.61, 431471.212], [200684.987, 431484.483], [200638.573, 431499.536], [200584.554, 431517.088], [200565.204, 431523.537], [200520.873, 431538.315], [200481.68, 431551.379], [200470.261, 431555.186], [200390.332, 431579.801], [200389.743, 431579.982], [200388.663, 431580.315], [200334.093, 431593.156], [200273.865, 431604.939], [200204.087, 431617.319], [200195.824, 431618.785], [200195.582, 431618.828], [200192.688, 431619.342], [200173.786, 431622.525], [200113.105, 431632.742], [200072.651, 431639.554], [200012.776, 431648.682], [199772.138, 431754.485], [199650.87, 431806.138], [199428.198, 431926.583], [199363.139, 431970.038], [199341.775, 431984.746], [199206.901, 432083.866], [199137.605, 432140.123], [199094.436, 432175.17], [198840.257, 432399.218], [198705.082, 432497.315], [198618.426, 432549.714], [198534.746, 432597.946], [198358.043, 432682.49], [198197.66, 432729.832], [198032.046, 432756.004], [197832.223, 432746.659], [197731.849, 432733.05], [197610.228, 432706.348], [197523.238, 432680.437], [197511.435, 432675.553], [197469.564, 432658.227], [197328.901, 432592.522], [197175.282, 432488.875], [197002.611, 432337.156], [196985.188, 432320.005], [196952.801, 432286.639], [196901.866, 432235.361], [196854.643, 432186.999], [196815.094, 432141.367], [196758.627, 432077.39], [196690.479, 431994.155], [196678.347, 431978.605], [196651.356, 431943.443], [196623.297, 431907.628], [196593.856, 431869.142], [196576.08, 431844.751], [196541.108, 431797.812], [196509.104, 431754.155], [196498.318, 431739.442], [196482.966, 431714.537], [196459.769, 431669.843], [196430.906, 431614.592], [196402.868, 431557.691], [196393.797, 431538.724], [196362.46, 431475.226], [196341.019, 431434.819], [196319.578, 431389.463], [196296.488, 431344.107], [196273.398, 431297.102], [196247.834, 431245.149], [196224.524, 431192.669], [196217.652, 431177.198], [196181.642, 431087.312], [196154.846, 431027.966], [196064.487, 430708.609], [196039.414, 430618.048], [195972.902, 430430.499], [195962.064, 430406.664], [195960.702, 430403.669], [195941.013, 430365.112], [195923.131, 430332.647], [195916.685, 430321.173], [195908.777, 430307.095], [195843.132, 430220.047], [195773.78, 430128.083], [195682.834, 430016.898], [195634.841, 429971.245], [195577.262, 429927.045], [195553.513, 429912.824], [195450.246, 429863.047], [195432.176, 429854.177], [195303.539, 429791.035], [195265.017, 429771.489], [195174.163, 429737.357], [195132.586, 429725.938], [195089.605, 429717.589], [195064.124, 429713.592], [195019.638, 429707.149], [194975.617, 429702.138], [194944.434, 429701.779], [194892.917, 429701.187], [194771.933, 429714.287], [194722.525, 429720.641], [194673.103, 429727.217], [194653.784, 429730.713], [194586.507, 429747.1], [194526.906, 429763.086], [194478.817, 429776.473], [194404.75, 429800.166], [194317.579, 429836.804], [194254.847, 429877.972], [194190.427, 429920.685], [194171.124, 429937.606], [194135.748, 429970.994], [194060.418, 430042.091], [193972.242, 430129.077], [193912.975, 430194.858], [193856.147, 430265.683], [193802.332, 430336.79], [193743.478, 430423.221], [193636.043, 430586.94], [193548.095, 430722.105], [193442.243, 430882.471], [193182.164, 431225.334], [193088.417, 431335.092], [192885.417, 431572.763], [192722.209, 431708.387], [192530.353, 431808.531], [192067.176, 431898.381], [191940.506, 431923.072], [191827.608, 431924.157], [191761.639, 431924.791], [191663.516, 431910.769], [191574.295, 431898.731], [191514.889, 431892.76], [191321.003, 431875.196], [191309.741, 431873.869], [191286.162, 431870.359], [191098.338, 431836.837], [190987.093, 431816.791], [190961.084, 431810.893], [190941.845, 431806.417], [190565.541, 431682.196], [190563.557, 431681.541], [190269.172, 431559.104], [190263.782, 431556.656], [190038.587, 431454.392], [189974.173, 431413.294], [189903.612, 431360.16], [189856.95, 431320.973], [189803.448, 431277.009], [189801.176, 431275.142], [189791.174, 431266.512], [189740.171, 431217.036], [189702.523, 431181.859], [189649.67, 431129.051], [189522.031, 430997.958], [189457.504, 430925.097], [189408.926, 430856.945], [189344.17, 430748.161], [189290.856, 430660.005], [189232.117, 430562.937], [189200.673, 430506.709], [189193.53, 430492.134], [189154.656, 430406.424], [189107.083, 430298.873], [189056.656, 430175.563], [189192.67, 430156.753], [189221.883, 430152.712], [189251.565, 430148.607], [189259.625, 430147.401], [189293.082, 430142.393], [189293.179, 430142.378], [189364.674, 430131.675], [189366.131, 430131.453], [189369.389, 430130.956], [189372.267, 430130.517], [189373.242, 430130.951], [189376.418, 430132.363], [189380.755, 430134.292], [189391.066, 430138.074], [189400.983, 430142.834], [189415.284, 430150.329], [189417.391, 430151.354], [189451.814, 430168.106], [189452.069, 430166.627], [189454.293, 430153.715], [189455.561, 430146.349], [189457.339, 430120.273], [189465.52, 430000.282], [189468.366, 429958.548], [189470.315, 429864.214], [189470.344, 429862.815], [189470.293, 429862.235], [189469.856, 429857.245], [189466.504, 429819.013], [189465.839, 429811.425], [189464.247, 429761.832], [189461.342, 429671.308], [189460.584, 429668.833], [189446.318, 429622.278], [189419.041, 429533.259], [189401.857, 429530.727], [189384.388, 429527.269], [189377.764, 429525.049], [189377.298, 429524.893], [189376.241, 429524.539], [189372.435, 429517.929], [189370.486, 429509.484], [189348.153, 429454.793], [189345.519, 429441.268], [189345.411, 429435.429], [189345.617, 429430.987], [189348.197, 429422.233], [189361.551, 429395.667], [189362.971, 429390.719], [189363.88, 429385.834], [189364.471, 429380.885], [189364.681, 429375.173], [189361.269, 429365.265], [189357.988, 429354.723], [189353.12, 429341.829], [189350.984, 429331.733], [189350.482, 429329.153], [189349.797, 429325.637], [189350.264, 429323.434], [189356.069, 429296.024], [189360.531, 429270.951], [189361.934, 429259.983], [189362.401, 429256.332], [189352.415, 429253.995], [189341.153, 429247.62], [189330.317, 429238.909], [189272.735, 429183.239], [189275.42, 429181.502], [189276.347, 429180.902], [189282.934, 429181.752], [189296.32, 429189.614], [189313.531, 429201.087], [189323.73, 429202.362], [189332.654, 429199.175], [189340.303, 429194.713], [189349.652, 429186.639], [189358.364, 429180.69], [189362.35, 429176.874], [189372.284, 429169.956], [189380.977, 429164.457], [189390.822, 429159.23], [189400.579, 429155.859], [189410.69, 429153.021], [189422.753, 429149.296], [189434.816, 429146.28], [189443.154, 429143.796], [189449.895, 429141.49], [189456.636, 429138.297], [189461.789, 429135.844], [189464.13, 429134.472], [189460.128, 429131.403], [189455.283, 429127.688], [189450.055, 429123.383], [189444.007, 429116.171], [189439.856, 429110.943], [189437.088, 429105.715], [189435.55, 429100.18], [189434.935, 429095.259], [189434.628, 429091.261], [189426.786, 429077.884], [189417.508, 429062.31], [189407.821, 429047.857], [189402.439, 429038.323], [189399.364, 429032.942], [189397.365, 429028.943], [189385.987, 429002.035], [189370.592, 428966.62], [189358.711, 428940.217], [189347.71, 428922.175], [189334.508, 428904.573], [189329.668, 428902.373], [189258.292, 428832.053], [189205.486, 428777.487], [189190.085, 428764.286], [189177.763, 428753.285], [189169.403, 428742.284], [189153.561, 428725.562], [189138.599, 428715.441], [189124.958, 428707.52], [189108.236, 428699.159], [189092.834, 428692.558], [189072.592, 428685.078], [189055.87, 428679.357], [189046.629, 428673.636], [189039.149, 428667.916], [189020.323, 428644.383], [189018.416, 428642.0], [189017.525, 428640.886], [189015.411, 428642.164], [189013.61, 428643.253], [189001.235, 428641.594], [188999.994, 428641.428], [188997.592, 428636.795], [188984.947, 428612.403], [189042.07, 428581.449], [189082.425, 428562.077], [189216.488, 428511.203], [189235.942, 428503.786], [189245.496, 428498.43], [189267.211, 428484.536], [189273.775, 428479.422], [189303.351, 428456.385], [189331.996, 428433.964], [189390.866, 428390.139], [189420.813, 428369.333], [189455.69, 428347.537], [189481.296, 428331.976], [189515.921, 428313.397], [189542.253, 428300.086], [189567.663, 428288.246], [189604.637, 428272.254], [189640.675, 428258.067], [189703.162, 428232.608], [189736.28, 428220.504], [189763.609, 428209.053], [189781.12, 428201.446], [189784.759, 428199.745], [189790.689, 428197.186], [189797.338, 428194.21], [189804.406, 428191.152], [189810.203, 428188.679], [189816.961, 428185.726], [189826.48, 428181.49], [189831.167, 428179.442], [189837.605, 428176.649], [189842.729, 428174.375], [189853.882, 428169.46], [189870.651, 428162.056], [189879.791, 428157.773], [189888.68, 428153.642], [189920.274, 428138.782], [189962.875, 428118.668], [189954.1, 428115.222], [189923.096, 428103.049], [189888.975, 428089.694], [189887.265, 428089.024], [189869.227, 428082.156], [189868.506, 428081.725], [189866.499, 428080.554], [189865.519, 428079.955], [189860.945, 428076.975], [189858.196, 428075.125], [189853.585, 428074.156], [189846.304, 428075.6], [189839.124, 428077.478], [189832.566, 428079.18], [189830.674, 428079.659], [189828.543, 428080.198], [189826.695, 428080.665], [189821.775, 428081.884], [189819.226, 428076.554], [189818.693, 428075.439], [189818.396, 428074.816], [189813.586, 428064.453], [189800.595, 428057.057], [189816.602, 428026.117], [189828.286, 428003.388], [189829.513, 428001.001], [189831.208, 428001.366], [189832.978, 428001.438], [189834.772, 428001.24], [189837.791, 427999.812], [189839.729, 427998.895], [189844.819, 427996.465], [189848.568, 427994.627], [189851.996, 427992.469], [189856.403, 427989.331], [189860.813, 427986.067], [189865.591, 427982.585], [189866.522, 427981.824], [189867.753, 427981.208], [189868.855, 427981.033], [189870.168, 427980.995], [189872.579, 427980.746], [189874.76, 427980.506], [189877.91, 427980.176], [189879.715, 427979.924], [189881.611, 427979.038], [189883.023, 427977.957], [189883.879, 427976.848], [189884.334, 427975.754], [189884.639, 427975.019], [189884.89, 427974.226], [189884.941, 427973.081], [189884.852, 427972.112], [189884.353, 427970.815], [189883.506, 427969.27], [189881.996, 427966.393], [189879.413, 427962.015], [189875.998, 427956.873], [189871.751, 427950.329], [189879.0, 427944.934], [189883.106, 427941.758], [189898.715, 427931.169], [189918.875, 427918.615], [189944.016, 427900.853], [189944.386, 427900.591], [189954.522, 427894.236], [189969.108, 427887.462], [189991.684, 427877.39], [189995.254, 427881.23], [189996.912, 427883.014], [189999.673, 427881.125], [190013.977, 427867.42], [190016.608, 427864.829], [190022.118, 427858.745], [190029.038, 427848.715], [190042.43, 427829.303], [190052.796, 427818.636], [190061.511, 427811.779], [190087.687, 427787.432], [190093.176, 427783.045], [190094.803, 427782.043], [190102.957, 427777.022], [190113.531, 427768.028], [190129.133, 427752.675], [190140.927, 427736.584], [190154.024, 427717.302], [190157.926, 427706.432], [190163.208, 427689.776], [190159.642, 427677.255], [190176.017, 427666.841], [190184.643, 427662.696], [190185.145, 427664.335], [190201.292, 427659.279], [190205.415, 427657.092], [190211.284, 427658.459], [190225.233, 427653.948], [190224.031, 427649.476], [190220.33, 427636.882], [190217.769, 427631.201], [190206.327, 427610.503], [190200.476, 427599.861], [190193.085, 427585.708], [190190.22, 427580.223], [190186.561, 427571.364], [190181.467, 427556.145], [190181.368, 427555.848], [190179.652, 427550.869], [190178.827, 427548.47], [190174.583, 427537.222], [190173.045, 427528.855], [190172.339, 427525.017], [190170.6, 427521.261], [190169.284, 427518.584], [190165.25, 427511.752], [190162.854, 427508.488], [190159.922, 427505.94], [190143.871, 427494.222], [190120.693, 427476.291], [190123.982, 427472.39], [190118.73, 427464.708], [190108.201, 427449.308], [190086.154, 427413.972], [190084.56, 427410.767], [190081.447, 427404.221], [190078.833, 427397.893], [190076.471, 427391.769], [190072.946, 427381.153], [190068.667, 427370.935], [190066.745, 427366.65], [190065.533, 427363.437], [190064.953, 427362.153], [190059.95, 427352.846], [190058.182, 427349.492], [190055.391, 427342.92], [190053.194, 427335.554], [190051.443, 427328.578], [190050.446, 427324.769], [190049.729, 427318.019], [190049.583, 427312.991], [190049.452, 427309.544], [190049.548, 427305.159], [190050.304, 427298.644], [190053.572, 427268.939], [190054.497, 427263.719], [190054.88, 427261.555], [190058.502, 427247.449], [190059.805, 427242.139], [190061.322, 427238.4], [190063.01, 427234.585], [190062.714, 427232.419], [190065.228, 427230.535], [190068.564, 427228.036], [190095.705, 427207.703], [190116.467, 427194.505], [190132.958, 427188.69], [190145.659, 427184.212], [190184.758, 427178.56], [190201.359, 427176.011], [190210.328, 427174.668], [190216.702, 427173.518], [190226.657, 427171.739], [190252.274, 427167.06], [190289.809, 427160.336], [190301.176, 427157.386], [190352.46, 427144.078], [190356.623, 427142.998], [190405.624, 427133.319], [190438.205, 427128.657], [190465.577, 427122.01], [190467.623, 427121.513], [190480.011, 427119.996], [190489.784, 427118.8], [190493.736, 427118.316], [190499.682, 427117.571], [190519.372, 427117.715], [190539.578, 427117.807], [190555.295, 427116.81], [190569.526, 427114.703], [190580.927, 427111.368], [190649.617, 427087.171], [190679.717, 427075.018], [190681.571, 427074.269], [190711.08, 427060.26], [190722.783, 427057.47], [190736.415, 427051.101], [190736.842, 427050.902], [190736.904, 427050.873], [190750.745, 427044.656], [190751.549, 427044.233], [190766.636, 427036.29], [190780.883, 427026.917], [190781.141, 427026.747], [190786.744, 427023.061], [190787.144, 427022.798], [190796.242, 427015.737], [190807.636, 427004.808], [190816.525, 426994.567], [190819.261, 426990.928], [190820.471, 426989.354], [190821.974, 426987.401], [190823.587, 426985.304], [190825.213, 426983.189], [190837.422, 426967.311], [190838.313, 426966.153], [190843.053, 426960.304], [190844.11, 426958.999], [190849.846, 426951.92], [190852.461, 426948.692], [190856.201, 426944.424], [190863.867, 426936.23], [190871.77, 426928.436], [190878.009, 426922.283], [190881.056, 426918.443], [190887.417, 426909.56], [190894.981, 426899.482], [190899.044, 426895.283], [190904.748, 426889.388], [190917.258, 426878.906], [190919.041, 426877.412], [190924.016, 426873.319], [190919.403, 426868.654], [190916.046, 426865.516], [190914.373, 426863.812], [190910.813, 426857.532], [190909.305, 426853.971], [190906.468, 426846.517], [190903.266, 426840.771], [190902.957, 426840.3], [190901.582, 426838.44], [190896.645, 426833.475], [190892.417, 426829.672], [190889.557, 426827.478], [190888.214, 426826.473], [190883.873, 426823.637], [190879.52, 426820.606], [190876.33, 426818.572], [190871.137, 426814.778], [190862.919, 426808.636], [190854.929, 426803.032], [190847.512, 426797.406], [190839.343, 426792.134], [190829.474, 426785.629], [190827.971, 426784.631], [190820.034, 426779.896], [190814.976, 426776.94], [190807.688, 426772.801], [190804.177, 426770.781], [190796.98, 426766.213], [190791.871, 426762.729], [190788.058, 426760.059], [190782.28, 426756.22], [190778.45, 426753.362], [190773.11, 426749.17], [190771.534, 426747.849], [190770.184, 426746.042], [190766.148, 426741.158], [190762.213, 426735.92], [190759.309, 426731.393], [190753.799, 426722.309], [190748.086, 426712.311], [190742.822, 426702.758], [190736.699, 426692.001], [190733.027, 426685.629], [190728.616, 426678.57], [190726.188, 426675.22], [190724.577, 426673.26], [190723.057, 426671.517], [190720.888, 426669.648], [190718.874, 426668.075], [190715.705, 426665.794], [190712.176, 426664.179], [190709.86, 426663.282], [190708.291, 426663.016], [190690.855, 426658.422], [190681.036, 426655.981], [190662.126, 426651.067], [190660.678, 426650.679], [190659.123, 426650.262], [190657.402, 426649.608], [190654.157, 426648.198], [190638.381, 426641.601], [190635.958, 426640.601], [190624.761, 426636.069], [190624.38, 426635.915], [190621.441, 426642.836], [190595.446, 426644.963], [190572.422, 426646.847], [190552.941, 426648.44], [190543.181, 426649.239], [190537.996, 426649.663], [190529.518, 426650.357], [190506.634, 426652.229], [190487.722, 426653.777], [190475.644, 426654.765], [190448.852, 426656.957], [190444.058, 426644.779], [190440.731, 426636.33], [190437.405, 426627.881], [190434.079, 426619.432], [190430.707, 426610.867], [190424.186, 426594.304], [190422.34, 426589.615], [190420.871, 426585.884], [190417.654, 426577.714], [190414.328, 426569.265], [190411.002, 426560.816], [190407.675, 426552.367], [190405.288, 426546.303], [190401.909, 426545.006], [190394.505, 426526.118], [190389.837, 426514.56], [190387.964, 426509.826], [190373.749, 426473.894], [190376.534, 426463.548], [190382.203, 426450.732], [190387.032, 426439.567], [190360.254, 426430.613], [190346.247, 426396.95], [190339.353, 426384.169], [190332.461, 426374.066], [190327.069, 426367.234], [190313.897, 426357.745], [190301.028, 426351.827], [190289.956, 426347.392], [190271.104, 426341.49], [190239.989, 426335.623], [190202.291, 426328.285], [190098.471, 426307.436], [189996.147, 426286.583], [189965.031, 426280.418], [189950.042, 426281.536], [189934.813, 426274.846], [189919.311, 426268.251], [189906.074, 426307.38], [189824.752, 426263.826], [189809.367, 426255.426], [189789.48, 426244.291], [189757.502, 426226.565], [189730.485, 426211.614], [189724.6, 426208.349], [189723.686, 426207.842], [189723.567, 426207.776], [189707.171, 426198.679], [189706.174, 426198.124], [189697.777, 426193.452], [189676.114, 426181.449], [189671.453, 426178.902], [189667.884, 426176.952], [189654.201, 426169.321], [189644.112, 426163.717], [189619.451, 426150.048], [189612.438, 426146.118], [189603.94, 426141.356], [189598.338, 426138.217], [189581.613, 426129.06], [189578.26, 426128.388], [189568.106, 426143.409], [189560.984, 426153.919], [189550.111, 426170.049], [189547.856, 426173.633], [189536.481, 426166.426], [189521.997, 426157.153], [189507.629, 426148.177], [189482.695, 426132.011], [189454.786, 426114.107], [189426.261, 426095.906], [189395.773, 426076.677], [189377.389, 426065.431], [189359.047, 426053.883], [189340.51, 426042.458], [189322.153, 426030.958], [189309.174, 426022.833], [189283.436, 426006.889], [189269.995, 425998.648], [189252.625, 425987.769], [189253.893, 425983.52], [189243.234, 425980.34], [189230.987, 425976.955], [189214.208, 425972.109], [189208.336, 425970.495], [189189.596, 425965.04], [189171.568, 425959.912], [189153.047, 425954.682], [189134.875, 425949.226], [189129.189, 425947.717], [189117.941, 425944.406], [189109.403, 425941.974], [189108.449, 425941.439], [189106.555, 425940.297], [189104.699, 425939.095], [189102.883, 425937.835], [189101.107, 425936.518], [189097.414, 425933.996], [189058.495, 425905.988], [189057.291, 425905.164], [189056.127, 425904.283], [189055.008, 425903.347], [189053.935, 425902.358], [189052.911, 425901.318], [189051.938, 425900.231], [189051.018, 425899.097], [189050.155, 425897.921], [189049.349, 425896.704], [189048.602, 425895.451], [189047.917, 425894.162], [189047.295, 425892.842], [189046.045, 425890.07], [189046.092, 425889.792], [189045.002, 425887.347], [189043.974, 425884.876], [189043.01, 425882.379], [189042.109, 425879.858], [189041.272, 425877.316], [189040.5, 425874.753], [189040.06, 425873.147], [189034.75, 425871.868], [189020.088, 425868.302], [189019.252, 425868.09], [189013.954, 425866.847], [189013.704, 425866.769], [189013.487, 425866.623], [189013.32, 425866.42], [189013.219, 425866.179], [189013.191, 425865.919], [189013.238, 425865.661], [189013.82, 425862.559], [189013.668, 425862.496], [189010.729, 425861.289], [189019.598, 425839.934], [189028.26, 425819.076], [189028.661, 425818.035], [189029.001, 425816.972], [189029.279, 425815.891], [189029.494, 425814.796], [189029.645, 425813.69], [189029.732, 425812.578], [189029.754, 425811.462], [189029.743, 425811.182], [189029.712, 425810.347], [189029.605, 425809.236], [189028.954, 425802.232], [189028.681, 425799.297], [189028.554, 425798.003], [189028.503, 425796.705], [189028.529, 425795.405], [189028.63, 425794.11], [189028.807, 425792.822], [189029.059, 425791.547], [189029.386, 425790.289], [189032.142, 425783.496], [189035.143, 425780.403], [189035.986, 425779.558], [189036.783, 425778.668], [189037.53, 425777.736], [189038.225, 425776.765], [189038.876, 425775.741], [189039.453, 425774.717], [189039.982, 425773.647], [189040.452, 425772.549], [189048.28, 425753.922], [189048.889, 425752.368], [189049.477, 425750.868], [189050.617, 425747.793], [189051.702, 425744.698], [189052.73, 425741.583], [189053.701, 425738.45], [189054.614, 425735.3], [189074.111, 425652.583], [189074.473, 425651.132], [189074.769, 425649.665], [189075.0, 425648.188], [189075.164, 425646.701], [189075.261, 425645.208], [189075.291, 425643.713], [189075.254, 425642.217], [189075.15, 425640.725], [189074.96, 425638.702], [189074.231, 425630.945], [189074.015, 425628.647], [189070.785, 425594.262], [189070.653, 425592.883], [189070.585, 425591.499], [189070.581, 425590.113], [189070.641, 425588.729], [189070.766, 425587.349], [189070.955, 425585.976], [189071.207, 425584.613], [189071.522, 425583.264], [189082.203, 425541.064], [189082.816, 425538.728], [189083.495, 425536.41], [189084.24, 425534.113], [189085.051, 425531.838], [189085.926, 425529.587], [189086.866, 425527.362], [189087.869, 425525.165], [189098.951, 425500.878], [189115.507, 425464.503], [189122.872, 425449.229], [189134.668, 425424.928], [189142.592, 425405.871], [189143.185, 425404.446], [189141.979, 425402.079], [189141.621, 425401.328], [189141.208, 425400.605], [189140.743, 425399.915], [189140.547, 425399.666], [189145.799, 425387.056], [189146.616, 425386.987], [189147.438, 425386.854], [189148.247, 425386.657], [189149.038, 425386.399], [189149.807, 425386.081], [189151.213, 425385.313], [189157.341, 425372.495], [189166.592, 425353.517], [189170.085, 425346.531], [189171.057, 425344.587], [189171.986, 425342.757], [189180.112, 425326.746], [189185.9, 425316.319], [189190.414, 425304.449], [189190.632, 425303.951], [189192.464, 425299.695], [189195.653, 425292.285], [189210.794, 425257.108], [189220.925, 425233.673], [189221.323, 425232.751], [189227.524, 425218.407], [189227.632, 425218.157], [189230.412, 425211.95], [189258.843, 425148.722], [189270.787, 425127.459], [189304.178, 425078.787], [189336.35, 425031.891], [189372.745, 424978.838], [189393.15, 424993.022], [189393.54, 424993.316], [189399.578, 424985.471], [189407.829, 424974.748], [189400.856, 424959.464], [189395.089, 424940.749], [189393.286, 424930.853], [189392.085, 424920.833], [189391.885, 424906.33], [189392.268, 424898.695], [189392.471, 424894.756], [189393.943, 424886.115], [189395.692, 424879.356], [189406.597, 424845.52], [189407.983, 424840.819], [189409.431, 424834.061], [189410.471, 424826.566], [189410.846, 424819.334], [189410.696, 424812.204], [189410.047, 424805.072], [189408.835, 424798.177], [189407.147, 424791.276], [189403.045, 424780.217], [189399.906, 424773.847], [189396.696, 424768.177], [189392.442, 424761.895], [189387.894, 424756.408], [189384.26, 424752.426], [189383.126, 424751.207], [189378.135, 424746.541], [189372.56, 424741.816], [189366.934, 424737.468], [189348.922, 424725.161], [189332.498, 424713.94], [189328.302, 424711.056], [189313.077, 424701.83], [189306.975, 424698.693], [189294.335, 424692.79], [189286.925, 424689.746], [189273.005, 424684.688], [189268.6, 424683.096], [189262.596, 424681.567], [189252.593, 424679.439], [189213.978, 424671.137], [189194.144, 424666.855], [189178.57, 424663.524], [189165.573, 424660.73], [189153.786, 424658.204], [189143.814, 424656.695], [189132.532, 424655.538], [189123.543, 424654.984], [189113.182, 424654.892], [189106.027, 424655.238], [189103.224, 424655.412], [189090.288, 424656.571], [189058.471, 424660.553], [189057.921, 424660.623], [189028.273, 424664.323], [188985.967, 424669.615], [188974.956, 424670.957], [188936.362, 424675.802], [188935.102, 424675.368], [188934.114, 424674.19], [188933.176, 424673.284], [188920.482, 424674.875], [188921.175, 424671.274], [188923.546, 424659.522], [188936.341, 424572.03], [188948.467, 424493.387], [188984.8, 424257.74], [188986.541, 424246.447], [188987.859, 424237.899], [189027.679, 423980.935], [189028.882, 423973.172], [189061.693, 423761.443], [189091.29, 423718.673], [189096.753, 423710.779], [189202.893, 423557.399], [189265.34, 423466.821], [189270.281, 423459.654], [189360.568, 423328.695], [189401.486, 423269.366], [189415.313, 423250.564], [189491.924, 423118.094], [189496.752, 423109.745], [189509.024, 423088.525], [189508.537, 422914.527], [189508.447, 422903.108], [189508.191, 422870.57], [189508.074, 422855.731], [189507.563, 422804.668], [189506.844, 422717.796], [189505.991, 422644.561], [189506.079, 422564.6], [189505.012, 422432.149], [189503.525, 422250.717], [189503.367, 422219.473], [189501.858, 422032.018], [189501.856, 422031.807], [189501.75, 422018.631], [189500.113, 421996.485], [189500.698, 421965.588], [189500.786, 421960.98], [189501.33, 421950.213], [189502.846, 421942.437], [189503.913, 421933.41], [189504.549, 421929.276], [189505.449, 421923.42], [189506.207, 421918.486], [189507.94, 421907.289], [189510.271, 421895.217], [189516.618, 421868.769], [189521.701, 421849.037], [189524.817, 421836.937], [189524.879, 421836.698], [189530.22, 421815.966], [189537.431, 421787.553], [189544.901, 421757.991], [189549.11, 421740.883], [189551.506, 421731.146], [189552.829, 421725.77], [189553.486, 421723.1], [189555.4, 421715.322], [189555.498, 421710.686], [189555.827, 421710.043], [189562.156, 421700.306], [189581.055, 421671.894], [189587.981, 421661.355], [189593.955, 421652.467], [189597.682, 421646.581], [189618.536, 421614.67], [189628.285, 421600.119], [189645.084, 421574.957], [189658.286, 421554.766], [189663.709, 421546.79], [189674.461, 421530.391], [189683.411, 421516.898], [189693.86, 421501.264], [189706.286, 421482.453], [189712.686, 421472.727], [189719.383, 421463.078], [189727.585, 421450.446], [189737.786, 421434.958], [189746.86, 421421.393], [189759.76, 421401.966], [189768.91, 421388.104], [189788.583, 421358.732], [189800.881, 421340.415], [189814.481, 421319.905], [189821.655, 421309.22], [189835.605, 421288.169], [189849.501, 421267.736], [189859.753, 421252.051], [189869.578, 421237.204], [189879.916, 421221.819], [189884.425, 421215.12], [189884.965, 421214.434], [189892.35, 421203.154], [189900.127, 421191.79], [189900.622, 421191.067], [189911.392, 421175.41], [189922.188, 421159.655], [189923.984, 421157.04], [189926.275, 421153.704], [189931.283, 421146.411], [189934.186, 421142.144], [189951.152, 421116.97], [189955.025, 421110.728], [189966.13, 421093.913], [189969.067, 421089.465], [189973.947, 421083.251], [190095.783, 420901.369], [190208.032, 420732.383], [190212.561, 420725.649], [190213.5, 420724.252], [190215.538, 420721.299], [190221.675, 420712.404], [190286.578, 420618.312], [190353.532, 420519.902], [190385.821, 420474.448], [190386.845, 420472.839], [190389.163, 420469.194], [190394.641, 420459.433], [190425.006, 420405.863], [190449.365, 420362.343], [190450.897, 420359.607], [190458.616, 420345.817], [190466.308, 420332.628], [190520.743, 420235.651], [190529.177, 420220.471], [190545.489, 420191.76], [190572.467, 420144.276], [190599.224, 420097.027], [190656.423, 419996.023], [190685.568, 419944.474], [190694.158, 419929.282], [190720.707, 419882.329], [190756.975, 419817.228], [190769.654, 419794.119], [190771.684, 419791.973], [190832.032, 419728.198], [190863.338, 419695.104], [190891.786, 419665.245], [190893.207, 419663.757], [190896.15, 419660.678], [190900.116, 419656.524], [190902.101, 419654.232], [190903.23, 419653.114], [190908.155, 419648.239], [190919.26, 419636.641], [190922.44, 419632.923], [190928.526, 419627.969], [190929.156, 419627.456], [190954.529, 419606.802], [190956.457, 419605.228], [191001.42, 419568.538], [191045.393, 419532.655], [191081.547, 419503.152], [191085.956, 419499.554], [191130.698, 419463.043], [191168.427, 419432.255], [191183.583, 419396.524], [191184.774, 419393.716], [191194.878, 419369.894], [191196.397, 419366.307], [191197.433, 419363.862], [191231.946, 419282.394], [191241.011, 419260.635], [191246.707, 419247.442], [191259.249, 419217.89], [191277.989, 419173.69], [191307.9, 419103.145], [191319.97, 419074.677], [191328.475, 419054.617], [191328.166, 418999.917], [191327.767, 418955.371], [191327.742, 418947.356], [191327.563, 418889.733], [191327.521, 418876.396], [191326.892, 418688.325], [191326.87, 418666.76], [191331.855, 418653.785], [191357.3, 418587.56], [191358.93, 418583.33], [191378.32, 418532.85], [191464.279, 418309.149], [191464.49, 418308.599], [191528.657, 418284.872], [191541.394, 418280.172], [191546.053, 418278.46], [191550.152, 418276.954], [191555.444, 418275.006], [191558.7, 418273.807], [191625.54, 418249.204], [191737.417, 418208.458], [191742.471, 418206.617], [191752.382, 418203.007], [191932.053, 418137.571], [191935.947, 418136.153], [191942.484, 418133.772], [192013.243, 418108.083], [192017.955, 418106.372], [192070.439, 418087.318], [192121.804, 418068.585], [192264.571, 418016.517], [192266.482, 418015.82], [192271.003, 418014.171], [192272.12, 418013.764], [192274.145, 418013.025], [192274.686, 418012.828], [192275.215, 418012.635], [192326.069, 417994.088], [192497.314, 417931.634], [192703.932, 417856.28], [192709.647, 417853.641], [192713.539, 417851.844], [192711.049, 417849.426], [192710.741, 417849.127], [192701.18, 417839.841], [192659.012, 417798.195], [192612.209, 417751.821], [192536.324, 417676.576], [192530.736, 417665.394], [192505.663, 417614.814], [192503.073, 417609.589], [192502.571, 417608.577], [192499.39, 417605.622], [192491.003, 417519.276], [192487.773, 417485.816], [192483.523, 417441.792], [192509.571, 417424.354], [192536.619, 417406.417], [192567.261, 417375.894], [192615.648, 417344.102], [192592.516, 417330.586], [192593.375, 417328.821], [192610.666, 417293.291], [192613.04, 417290.024], [192625.459, 417297.695], [192634.182, 417303.17], [192647.496, 417306.699], [192644.137, 417303.086], [192643.821, 417291.771], [192640.004, 417290.269], [192648.784, 417256.691], [192665.609, 417223.071], [192679.075, 417173.863], [192680.531, 417167.683], [192680.259, 417166.229], [192706.396, 417155.79], [192743.164, 417164.578], [192782.613, 417174.185], [192790.749, 417171.826], [192796.431, 417170.238], [192799.022, 417169.285], [192807.023, 417162.336], [192808.478, 417160.246], [192819.709, 417142.029], [192832.033, 417114.86], [192850.541, 417077.56], [192896.767, 417066.631], [192913.538, 417069.956], [192952.437, 417098.695], [192978.021, 417118.066], [192992.746, 417122.981], [193005.471, 417127.077], [193029.605, 417128.77], [193062.602, 417130.694]]]]}}]}