{
"type": "FeatureCollection",
"name": "bergendal_boundary_wgs84",
"crs": { "type": "name", "properties": { "name": "urn:ogc:def:crs:OGC:1.3:CRS84" } },
"features": [
{ "type": "Feature", "properties": { "id": "gemeentegebied.ffd9a5db-c90b-48ee-8129-272ae92867e5", "identificatie": "GM1945", "naam": "Berg en Dal", "code": "1945", "ligtInProvincieCode": "25", "ligtInProvincieNaam": "Gelderland" }, "geometry": { "type": "MultiPolygon", "coordinates": [ [ [ [ 5.938298605794927, 51.741593147887855 ], [ 5.938366422198222, 51.741595300754014 ], [ 5.939523943415367, 51.741814853017082 ], [ 5.939577037227536, 51.741797056920802 ], [ 5.939826208265353, 51.741720386467833 ], [ 5.939978976182656, 51.741673140688441 ], [ 5.940042580237542, 51.741654072339102 ], [ 5.940207370942707, 51.741621483908247 ], [ 5.940358364328326, 51.741590182839104 ], [ 5.940693330210821, 51.741535594982892 ], [ 5.940708264536925, 51.741573932825965 ], [ 5.940826391892389, 51.741556925521621 ], [ 5.94087514309448, 51.741549908738371 ], [ 5.941015034951188, 51.741527234430741 ], [ 5.942880603223543, 51.741710416360327 ], [ 5.942886764149867, 51.741711016344262 ], [ 5.942965233444826, 51.74171872492844 ], [ 5.94334712910396, 51.741756300955295 ], [ 5.943962071845089, 51.741816813114333 ], [ 5.944104617047789, 51.741849672224099 ], [ 5.944248510839206, 51.741886201097877 ], [ 5.944467234316432, 51.741961609266617 ], [ 5.944556748260483, 51.741983106741401 ], [ 5.945053302564465, 51.742102368681181 ], [ 5.946134344202189, 51.742361410324683 ], [ 5.946504435135775, 51.742504361144888 ], [ 5.946745916432461, 51.742597633695333 ], [ 5.947094535564034, 51.742692470199572 ], [ 5.947350693714503, 51.742815495641949 ], [ 5.948083377122037, 51.743163077371939 ], [ 5.94819913429199, 51.743211574126022 ], [ 5.948543167899875, 51.743363209463006 ], [ 5.949500510835896, 51.743783304723557 ], [ 5.949854752258752, 51.74394001974877 ], [ 5.950238116199825, 51.744109618291624 ], [ 5.950316128830033, 51.744144128256139 ], [ 5.950737134408786, 51.74433038895333 ], [ 5.951009898287781, 51.744191910267325 ], [ 5.951339923295797, 51.744272118272072 ], [ 5.951550796721852, 51.744295668704936 ], [ 5.951715689518997, 51.744325561557346 ], [ 5.95195250542537, 51.744370648874323 ], [ 5.952354226044881, 51.74451241313421 ], [ 5.952361629023208, 51.74451502907241 ], [ 5.952435603269693, 51.744536748313543 ], [ 5.952466079229846, 51.744553769574523 ], [ 5.952478132665492, 51.744570457241778 ], [ 5.952485089728863, 51.744601065917287 ], [ 5.95245905865307, 51.744680012796962 ], [ 5.952425752300257, 51.744756145370211 ], [ 5.952353713001123, 51.744948040561688 ], [ 5.952351105716982, 51.744958381072863 ], [ 5.952332357521107, 51.74503269061367 ], [ 5.952270137238424, 51.745546421193374 ], [ 5.952267423709245, 51.745593399865569 ], [ 5.952269217804972, 51.745688158327063 ], [ 5.952272672038092, 51.745838045029679 ], [ 5.952276567410787, 51.745914420598311 ], [ 5.952284688846702, 51.746013759708362 ], [ 5.952293562048216, 51.746122254603662 ], [ 5.952396460717553, 51.74630396678964 ], [ 5.952534942322801, 51.746577326046463 ], [ 5.952556263135683, 51.746619397819444 ], [ 5.952762398179112, 51.747009363422059 ], [ 5.952974727123812, 51.747423001761632 ], [ 5.953098325688998, 51.747660252978569 ], [ 5.953287895804158, 51.748024158715417 ], [ 5.953234922106707, 51.748092116963484 ], [ 5.953163516496926, 51.748174141529482 ], [ 5.952976668209207, 51.748342861522133 ], [ 5.95290021594738, 51.748388551295292 ], [ 5.952780645032659, 51.748460165608101 ], [ 5.952682605804389, 51.748517797450603 ], [ 5.952536924654835, 51.748607910265299 ], [ 5.952329187988425, 51.7487371081181 ], [ 5.95198819098538, 51.748949418617649 ], [ 5.952153992170262, 51.749052833473975 ], [ 5.952233794960416, 51.749102299607387 ], [ 5.952237822944873, 51.749104788010811 ], [ 5.952271535428657, 51.749125613883145 ], [ 5.954093106810061, 51.750250865512726 ], [ 5.955134838935347, 51.750896076376691 ], [ 5.95515013172048, 51.75090527851885 ], [ 5.955251007964066, 51.750965912206773 ], [ 5.955262918126031, 51.750973297052298 ], [ 5.955743268264403, 51.751271097681098 ], [ 5.955750785243997, 51.75127576226123 ], [ 5.956097306394173, 51.751489169303824 ], [ 5.956125271084161, 51.751506390573731 ], [ 5.95612846749944, 51.751508361541234 ], [ 5.956145530137651, 51.751518921232609 ], [ 5.956470788772947, 51.751720331719447 ], [ 5.9568247627791, 51.751938500344359 ], [ 5.957164560837773, 51.751834260914563 ], [ 5.957801895418906, 51.751633957785309 ], [ 5.958199815823415, 51.751506484338918 ], [ 5.958336078182276, 51.751460733335293 ], [ 5.958613046752518, 51.751594518113826 ], [ 5.959176465193576, 51.751875054972523 ], [ 5.959586335691001, 51.752079126936664 ], [ 5.95983528840813, 51.752203769420376 ], [ 5.960034061118699, 51.752303299766893 ], [ 5.960523368808009, 51.752545622240973 ], [ 5.9606453965676, 51.752605959066031 ], [ 5.961177131703003, 51.752868906838181 ], [ 5.96150845213467, 51.753033123735776 ], [ 5.962394313739976, 51.753468898106014 ], [ 5.962398088465538, 51.753470758201431 ], [ 5.963264964561708, 51.753913243834802 ], [ 5.963273271579404, 51.75391730181358 ], [ 5.963483658023823, 51.754020059089385 ], [ 5.964074730299496, 51.754308760011405 ], [ 5.964207272575782, 51.754374003112375 ], [ 5.964218072401806, 51.754379316147102 ], [ 5.964438675808598, 51.754487899973988 ], [ 5.965749651456849, 51.755133065777478 ], [ 5.966853546084939, 51.755677454224831 ], [ 5.966856317268472, 51.755678959596075 ], [ 5.966915096199015, 51.755710938022474 ], [ 5.967643836193024, 51.756068413070608 ], [ 5.968821253732468, 51.756649973406027 ], [ 5.968826792759768, 51.756652705425147 ], [ 5.969698655051146, 51.757083577604533 ], [ 5.970484859778254, 51.757471760225421 ], [ 5.97081666555957, 51.7576346541845 ], [ 5.971493124729868, 51.757969966116192 ], [ 5.971600850837607, 51.758023109079069 ], [ 5.972067704390084, 51.758256659781345 ], [ 5.972151001682072, 51.758294526628845 ], [ 5.972541902356662, 51.758489902294365 ], [ 5.973009509459646, 51.758719382643072 ], [ 5.973240650060606, 51.758834153415293 ], [ 5.973448949252145, 51.758937730298634 ], [ 5.97353866642887, 51.758982350467328 ], [ 5.973544293162331, 51.758985099803233 ], [ 5.973628635494692, 51.759026277182826 ], [ 5.973779259799686, 51.759099823411731 ], [ 5.974092608809527, 51.759255043339635 ], [ 5.974095028872559, 51.759256244685638 ], [ 5.974604187938243, 51.759121345240928 ], [ 5.974938027242721, 51.759036778373343 ], [ 5.97524129381369, 51.759181627983196 ], [ 5.975419966845787, 51.759267660401896 ], [ 5.975466561191833, 51.759288576782538 ], [ 5.975751448813173, 51.759395558340998 ], [ 5.975873820699168, 51.759440417227708 ], [ 5.976111244467097, 51.759527456835819 ], [ 5.976118201464638, 51.759530010603079 ], [ 5.976383318072517, 51.759629036167247 ], [ 5.976570140357971, 51.75969547560036 ], [ 5.976664007171214, 51.759711443729913 ], [ 5.976858193331845, 51.759740560823957 ], [ 5.977172002145658, 51.759749183640423 ], [ 5.977620530875557, 51.759756479823288 ], [ 5.977783256212061, 51.75974679714372 ], [ 5.978015271977538, 51.759731236945797 ], [ 5.978290044785111, 51.759710013539369 ], [ 5.978532570896459, 51.759783602499674 ], [ 5.978769854673012, 51.759860534227151 ], [ 5.978973919316108, 51.759949138665384 ], [ 5.97920974344416, 51.760052701208082 ], [ 5.979441704177669, 51.760185190245984 ], [ 5.979782266341688, 51.760373335692584 ], [ 5.979884879830458, 51.760436366452247 ], [ 5.979889377496065, 51.760439130183521 ], [ 5.980008126138272, 51.760502052272102 ], [ 5.98130135257213, 51.761217767562584 ], [ 5.981572755738765, 51.761367957824419 ], [ 5.981837755147169, 51.76151571706675 ], [ 5.982529476508791, 51.761893755017923 ], [ 5.983028920435704, 51.762168075940529 ], [ 5.983160847054548, 51.762240995130675 ], [ 5.98380719908493, 51.762594321807008 ], [ 5.983817106436644, 51.762599736464153 ], [ 5.984202794506518, 51.762810515502437 ], [ 5.984633962009886, 51.76304573526366 ], [ 5.984679428167052, 51.763070536843131 ], [ 5.985580444822507, 51.763571874500606 ], [ 5.986032357019949, 51.763820241474299 ], [ 5.987088627959893, 51.764400359648235 ], [ 5.988493274861936, 51.765174579973404 ], [ 5.988691795797205, 51.7652831058614 ], [ 5.988843518266828, 51.765366056286453 ], [ 5.990479208504411, 51.766265276194403 ], [ 5.990501099636177, 51.766277307165211 ], [ 5.990514526338094, 51.76629119740516 ], [ 5.990549630283777, 51.766333622839817 ], [ 5.990568204938607, 51.766357643731453 ], [ 5.990627113027166, 51.766433806790957 ], [ 5.990987683648036, 51.767490936925704 ], [ 5.991203266230904, 51.76827759007648 ], [ 5.99128625355532, 51.768445537494188 ], [ 5.991473994494321, 51.768842307816776 ], [ 5.991545326149018, 51.76899115136974 ], [ 5.991618969624442, 51.76914382110386 ], [ 5.991829462741662, 51.769553587940031 ], [ 5.9919403726899, 51.769780958520407 ], [ 5.992066971936548, 51.770245907467114 ], [ 5.99159513551313, 51.770044631919951 ], [ 5.99075000885694, 51.769682232357347 ], [ 5.99055344311362, 51.769809498625179 ], [ 5.990343273585387, 51.769945553528906 ], [ 5.990081363439432, 51.770113954599225 ], [ 5.989838405221557, 51.770269592660576 ], [ 5.989363722898456, 51.770577330936959 ], [ 5.988304891716335, 51.771255762079086 ], [ 5.987966968292035, 51.771472682221152 ], [ 5.987402378583183, 51.77183963182965 ], [ 5.986801596155212, 51.772226907318888 ], [ 5.986256864738046, 51.77242132991946 ], [ 5.985791398349352, 51.772585251313735 ], [ 5.985042815311011, 51.772833391345642 ], [ 5.98439547928316, 51.773052417988289 ], [ 5.982359842372295, 51.773697008095006 ], [ 5.98269279097254, 51.774034044422187 ], [ 5.983223050024836, 51.77455772322547 ], [ 5.983438304676412, 51.774771393715433 ], [ 5.984022428560253, 51.775351198539916 ], [ 5.983673357346643, 51.775581456951301 ], [ 5.98373816163164, 51.775730913571756 ], [ 5.98394385108093, 51.776217679127342 ], [ 5.984045705033136, 51.776457785963714 ], [ 5.984119136601498, 51.776640330496512 ], [ 5.984121710115545, 51.776647562220042 ], [ 5.984143639893555, 51.776709346189854 ], [ 5.984149627929587, 51.776724946907883 ], [ 5.984337520179346, 51.777214085483322 ], [ 5.984544074017165, 51.777793572142706 ], [ 5.984430823589742, 51.77777773592878 ], [ 5.984336656783907, 51.777765146168115 ], [ 5.984328849166253, 51.777775208247235 ], [ 5.984274794790526, 51.77784492064584 ], [ 5.984269066364809, 51.777853327213968 ], [ 5.984125687814561, 51.778063995538616 ], [ 5.983431933883693, 51.778725034356562 ], [ 5.98383821375777, 51.778986873175498 ], [ 5.984348809117203, 51.779310344573872 ], [ 5.985285588860139, 51.779871510561946 ], [ 5.985599071213046, 51.780060020147481 ], [ 5.98599756857178, 51.780300300596842 ], [ 5.986142478836228, 51.780385176942623 ], [ 5.987572292367542, 51.781317632526203 ], [ 5.987831849254348, 51.781482772255018 ], [ 5.987989441822145, 51.781582484486599 ], [ 5.988104496319867, 51.781665479988 ], [ 5.988226556069308, 51.781755396654852 ], [ 5.988382935915316, 51.78186618855495 ], [ 5.988524286261435, 51.781965947404359 ], [ 5.988688279637883, 51.782078111062489 ], [ 5.98903584389994, 51.782314112287267 ], [ 5.989149315591318, 51.782391155441836 ], [ 5.989150046860642, 51.782391655049821 ], [ 5.989271577291808, 51.78246875558505 ], [ 5.990427036698399, 51.783197491888352 ], [ 5.99029017319352, 51.783334175799403 ], [ 5.990284657176972, 51.78334001082046 ], [ 5.990226724786353, 51.783401305564198 ], [ 5.990220073139734, 51.783406750924016 ], [ 5.990210998768671, 51.783414177251458 ], [ 5.989747683396008, 51.783723736299464 ], [ 5.989131062750376, 51.783469973085651 ], [ 5.988985763465177, 51.783401641458454 ], [ 5.988746174281287, 51.7832885178141 ], [ 5.987887788434472, 51.782888727804355 ], [ 5.985496011654599, 51.784079463920811 ], [ 5.984793249854606, 51.784428165821545 ], [ 5.984678684445425, 51.785057134586474 ], [ 5.98422663649596, 51.784919152092009 ], [ 5.9838517129897, 51.784801305392648 ], [ 5.983675877102761, 51.78474581452528 ], [ 5.983585758172821, 51.784718201535178 ], [ 5.983482926817159, 51.784684927384781 ], [ 5.981765611861403, 51.784136705500941 ], [ 5.981567780726066, 51.784460552497308 ], [ 5.981519631812947, 51.784540516561762 ], [ 5.981032227127165, 51.785266937834137 ], [ 5.98101598055321, 51.785291154534967 ], [ 5.980859351964938, 51.785529822254226 ], [ 5.980783731484475, 51.78556647416125 ], [ 5.980711929286973, 51.785599232600106 ], [ 5.980616287238409, 51.785591339330743 ], [ 5.980547601821275, 51.785588918457854 ], [ 5.980409132302554, 51.785683451213103 ], [ 5.98038989866703, 51.785696573017972 ], [ 5.980321267271302, 51.785740146445704 ], [ 5.98000386867159, 51.785848212737754 ], [ 5.979796501362834, 51.785922140647799 ], [ 5.979709202635718, 51.785950329679984 ], [ 5.979628700751324, 51.785965253073584 ], [ 5.979538839004062, 51.785977077686468 ], [ 5.979461497075281, 51.785974385307718 ], [ 5.979379055217199, 51.785967404105151 ], [ 5.979283317248894, 51.785951141838432 ], [ 5.97893213580736, 51.785890569774466 ], [ 5.978657080132669, 51.785843787695917 ], [ 5.978457295398459, 51.785805326386274 ], [ 5.975688543115484, 51.785258681863851 ], [ 5.974548401873851, 51.785061975683021 ], [ 5.974521288887875, 51.786052673654424 ], [ 5.974382276021058, 51.786677583477562 ], [ 5.974200057706829, 51.787508773093109 ], [ 5.974198260478554, 51.787516566220049 ], [ 5.973988942498483, 51.788422091972137 ], [ 5.973987350546693, 51.78842895824156 ], [ 5.97397782863056, 51.788470218628731 ], [ 5.974014816880248, 51.78847798842741 ], [ 5.974658003513751, 51.788638378160776 ], [ 5.975070355086815, 51.788788218803361 ], [ 5.975009532382002, 51.788807804288396 ], [ 5.973155988693098, 51.789404711621955 ], [ 5.972632482453578, 51.789565292260747 ], [ 5.973204091882461, 51.790235386283456 ], [ 5.973530735685586, 51.790617350769949 ], [ 5.973539310691272, 51.790626934678961 ], [ 5.973661198123907, 51.790763041686844 ], [ 5.973703480398713, 51.790814397787514 ], [ 5.974504561572661, 51.791737076593208 ], [ 5.974570532403463, 51.791813050351237 ], [ 5.974833159596564, 51.792119378229764 ], [ 5.974949305605049, 51.792256995794808 ], [ 5.976723442703283, 51.794213698131777 ], [ 5.976782097924304, 51.794276170601847 ], [ 5.975277826877844, 51.794918930398651 ], [ 5.974908043329225, 51.795076529684863 ], [ 5.974900936238291, 51.79507955850665 ], [ 5.974862451639984, 51.795096434210542 ], [ 5.974599914273599, 51.795208920560071 ], [ 5.974785464127474, 51.795331224572038 ], [ 5.974391910676723, 51.795623078094017 ], [ 5.974726217208635, 51.795766092984913 ], [ 5.979065335774129, 51.797650663707856 ], [ 5.978214971526902, 51.798040725014893 ], [ 5.97815728266048, 51.798124384951343 ], [ 5.978126376057453, 51.79816318266095 ], [ 5.977849043938343, 51.798293530197675 ], [ 5.977790340551723, 51.798325276943572 ], [ 5.977620702962279, 51.79841443509163 ], [ 5.977398075339677, 51.79853000751099 ], [ 5.977194164935428, 51.7986313642566 ], [ 5.977079064196912, 51.798662944940524 ], [ 5.976997446688414, 51.798686366255332 ], [ 5.976784570738202, 51.798688713088325 ], [ 5.976670257822048, 51.798712945728845 ], [ 5.976591088786693, 51.798737379151603 ], [ 5.97633970317649, 51.798817022857897 ], [ 5.97623114614645, 51.798849100157682 ], [ 5.975941800010768, 51.798939441334191 ], [ 5.975825472682101, 51.798973804413762 ], [ 5.975748751926343, 51.798995950861588 ], [ 5.975643909041474, 51.799039415495706 ], [ 5.975588045903375, 51.799070149142295 ], [ 5.975459218449333, 51.799144295155742 ], [ 5.975238649886797, 51.799269488875154 ], [ 5.975077714651181, 51.799388504708197 ], [ 5.975117051881674, 51.799417835022233 ], [ 5.974801992583274, 51.799624713493394 ], [ 5.97451505360573, 51.799810282147085 ], [ 5.9740931705743, 51.800077341904 ], [ 5.974105865169669, 51.800086950093885 ], [ 5.974071197977516, 51.800101181739592 ], [ 5.973706282140085, 51.800278806161025 ], [ 5.973591562903919, 51.800334650673825 ], [ 5.973235956560946, 51.800518285372121 ], [ 5.972974148374634, 51.800653918845882 ], [ 5.972631584994054, 51.800831958556863 ], [ 5.972498665902328, 51.800906616067202 ], [ 5.971968630261914, 51.801213595784652 ], [ 5.971895236814131, 51.80125574067641 ], [ 5.971771880640658, 51.801375975734203 ], [ 5.971565441584707, 51.801570537820957 ], [ 5.971547006131855, 51.801588912464389 ], [ 5.97135376279815, 51.801781565755611 ], [ 5.971348260010414, 51.801786545875729 ], [ 5.971298777309936, 51.801831285836329 ], [ 5.971277972911079, 51.801839164579114 ], [ 5.971119303993294, 51.801916393637065 ], [ 5.971003047192235, 51.801970508441052 ], [ 5.970878586250031, 51.8020124754403 ], [ 5.970746334078147, 51.802085383828143 ], [ 5.970736257219968, 51.802090943971159 ], [ 5.970441067529059, 51.802264355027532 ], [ 5.970275524087509, 51.80235956732065 ], [ 5.970211910747854, 51.802395882856828 ], [ 5.969986426727883, 51.802525630218277 ], [ 5.969785582364707, 51.802634679874544 ], [ 5.969760833054281, 51.802648114909424 ], [ 5.969304372445158, 51.802895940549838 ], [ 5.969296367339057, 51.802900285814147 ], [ 5.969260531593617, 51.8029197441873 ], [ 5.9692543647825, 51.802923855610395 ], [ 5.968770985053217, 51.803246660667796 ], [ 5.968637739874327, 51.803321809724778 ], [ 5.968628254107308, 51.803327151027595 ], [ 5.967971311640762, 51.803698119989363 ], [ 5.967668663803542, 51.803959415281483 ], [ 5.967468292748946, 51.804143324451125 ], [ 5.967452530100494, 51.804176938831901 ], [ 5.967452050471833, 51.804177974891587 ], [ 5.967426931608846, 51.804231527286667 ], [ 5.967386075448371, 51.804454718097318 ], [ 5.967377340282268, 51.804467713853448 ], [ 5.967335271553853, 51.80453026674639 ], [ 5.967108985807799, 51.804449284192465 ], [ 5.966919220567783, 51.804383814745556 ], [ 5.966274415489721, 51.804892616831808 ], [ 5.966160899352264, 51.804982793392703 ], [ 5.966071787103726, 51.805073128036909 ], [ 5.966087773412418, 51.805081660188371 ], [ 5.965855647047717, 51.805303592155376 ], [ 5.965797389280236, 51.805396264181468 ], [ 5.96575672334466, 51.805603354882656 ], [ 5.965743774487868, 51.805608937746065 ], [ 5.965373381773, 51.805817744255258 ], [ 5.965035268486852, 51.806003325858448 ], [ 5.964596666096643, 51.806237283382174 ], [ 5.964083453678473, 51.806517349114742 ], [ 5.963578876884541, 51.806784947922438 ], [ 5.963216721474825, 51.80698631843687 ], [ 5.963079178487183, 51.807059190099437 ], [ 5.962805904176402, 51.8071743179501 ], [ 5.962141068228969, 51.807452952871166 ], [ 5.960472820746636, 51.808102588342528 ], [ 5.959832833959047, 51.808351120702753 ], [ 5.959638688524833, 51.808454978571454 ], [ 5.959511751642422, 51.80852686841569 ], [ 5.95893492239285, 51.808766629382788 ], [ 5.958988703932987, 51.808782573592971 ], [ 5.958689426260206, 51.808857864338336 ], [ 5.958288899793675, 51.808957925480854 ], [ 5.958248917926407, 51.808967917692051 ], [ 5.957876713718187, 51.809071776513186 ], [ 5.957818648099588, 51.809061048029143 ], [ 5.957779861339435, 51.809058935652487 ], [ 5.957517663693091, 51.809175938715306 ], [ 5.957265835650726, 51.809340179639904 ], [ 5.957106338243989, 51.809493463777521 ], [ 5.95684560898485, 51.809762535746714 ], [ 5.956820869048787, 51.80978650256877 ], [ 5.956778422795378, 51.809827615672241 ], [ 5.956758803158991, 51.809935465884998 ], [ 5.956537325399847, 51.810044008481867 ], [ 5.956379517201087, 51.810091470001801 ], [ 5.956260598009728, 51.810116945360782 ], [ 5.95611766719001, 51.810147175171103 ], [ 5.954188672753559, 51.810289268134326 ], [ 5.954054376967818, 51.810295993527788 ], [ 5.953658731410147, 51.810328187474788 ], [ 5.953657731920719, 51.810328273199012 ], [ 5.953101836296369, 51.810376699426676 ], [ 5.951462002323606, 51.810524569799078 ], [ 5.950993899895177, 51.810577156784426 ], [ 5.950938275771454, 51.810580785870719 ], [ 5.95080801069009, 51.810608440508091 ], [ 5.949434060223451, 51.810887046495544 ], [ 5.949230614390466, 51.810958392985121 ], [ 5.948724685817973, 51.81108080449134 ], [ 5.948640769723736, 51.811105439365427 ], [ 5.948376947043019, 51.811193774103025 ], [ 5.948327182190728, 51.811220834054616 ], [ 5.947977864185122, 51.811371373218968 ], [ 5.948325671862946, 51.811345269909999 ], [ 5.948432392794998, 51.811367868888958 ], [ 5.948482557466427, 51.811389201384934 ], [ 5.948535123819715, 51.811451995579247 ], [ 5.948570404107884, 51.811532202427266 ], [ 5.948612128290552, 51.811597691114891 ], [ 5.948682152990865, 51.811668491381347 ], [ 5.948817672232449, 51.811779327665064 ], [ 5.949005675612449, 51.811936904603691 ], [ 5.949123713035443, 51.812033056065964 ], [ 5.949187135993119, 51.812091825013269 ], [ 5.949241952672855, 51.81216398317676 ], [ 5.949342934296635, 51.812320340618491 ], [ 5.949421889589602, 51.812443069491977 ], [ 5.948764024763266, 51.812792361400312 ], [ 5.948315157216408, 51.812513284561767 ], [ 5.947634287483432, 51.812889753685504 ], [ 5.947011977175213, 51.813235674860557 ], [ 5.946569887808621, 51.813479917722972 ], [ 5.946591487336987, 51.813872920216411 ], [ 5.946856607735358, 51.814201625412295 ], [ 5.947016077857231, 51.814374694094944 ], [ 5.9470276032779, 51.814386054552678 ], [ 5.946836553354132, 51.814487880743513 ], [ 5.946508801213659, 51.81461405237075 ], [ 5.94606730915221, 51.814995455734632 ], [ 5.945945644624153, 51.815094594841213 ], [ 5.945926677411306, 51.815111134243551 ], [ 5.946022891154475, 51.815169937442313 ], [ 5.946066446666895, 51.815198358473538 ], [ 5.947046875540509, 51.815809974339821 ], [ 5.947945130888636, 51.81636584139271 ], [ 5.948061168170535, 51.816438039981378 ], [ 5.948077947920932, 51.816446184275861 ], [ 5.948177119325747, 51.816422915066312 ], [ 5.948816349618372, 51.815990023577555 ], [ 5.949312594909653, 51.8156589800303 ], [ 5.949627852272599, 51.815445042305349 ], [ 5.949719576148669, 51.815512007648636 ], [ 5.950672204390549, 51.816237485866445 ], [ 5.951138032260783, 51.815912692903296 ], [ 5.951578500291299, 51.815634014523354 ], [ 5.952261883934249, 51.81517745845391 ], [ 5.952846876422543, 51.814789605000655 ], [ 5.953438124132368, 51.815125369311268 ], [ 5.95390144308678, 51.8153784697896 ], [ 5.954788787493791, 51.815907165030687 ], [ 5.95567624370022, 51.815469430105864 ], [ 5.956641779386095, 51.816050791904317 ], [ 5.95714039034071, 51.816338907525832 ], [ 5.957364474496376, 51.816468395341396 ], [ 5.957425821011732, 51.816503844640856 ], [ 5.957580576948711, 51.816595090146549 ], [ 5.958150801916079, 51.816931292599904 ], [ 5.956897116206337, 51.817570641034166 ], [ 5.954055698892614, 51.819004472387284 ], [ 5.951676117393516, 51.82020086315385 ], [ 5.949138093957415, 51.821485692393345 ], [ 5.946888430537657, 51.8226176066863 ], [ 5.945070195695225, 51.823530047550001 ], [ 5.945044709006396, 51.823544020093642 ], [ 5.945778557484971, 51.824073998324216 ], [ 5.945803176008599, 51.82409177729437 ], [ 5.945479039411959, 51.824266241867562 ], [ 5.946139723778068, 51.824702680660948 ], [ 5.946192302375317, 51.824737413554068 ], [ 5.946558628859858, 51.824979391846462 ], [ 5.947822988225123, 51.825966671599481 ], [ 5.947945811338968, 51.825972565341743 ], [ 5.947992230655589, 51.826006365098003 ], [ 5.948027656402186, 51.826032163655512 ], [ 5.948262623513852, 51.826203251684504 ], [ 5.95037778836771, 51.82774329032712 ], [ 5.953794081128889, 51.830230375551793 ], [ 5.953850611889743, 51.830271530730933 ], [ 5.954907100865509, 51.831040588660912 ], [ 5.954938859346105, 51.831063706324741 ], [ 5.955397406225865, 51.83139748726574 ], [ 5.956061306007988, 51.831880730174589 ], [ 5.956101016560481, 51.831909633545713 ], [ 5.959585216792219, 51.834445505963991 ], [ 5.960283738280933, 51.834953858959985 ], [ 5.960472316522136, 51.835091100636753 ], [ 5.962464326887017, 51.83654069500998 ], [ 5.962479792548756, 51.836551944748869 ], [ 5.96254744057346, 51.83660117588537 ], [ 5.962804926032114, 51.836788546599735 ], [ 5.962903067226959, 51.836859964469355 ], [ 5.962978205963013, 51.836913958487791 ], [ 5.963261772404301, 51.836769289323165 ], [ 5.964189446735103, 51.836280869043279 ], [ 5.965602445120393, 51.835567457629971 ], [ 5.967075996359867, 51.834844552442988 ], [ 5.968096376497489, 51.834390122762187 ], [ 5.968669106461459, 51.834177574062892 ], [ 5.968961695847068, 51.834074840742652 ], [ 5.970118920669139, 51.833668100087252 ], [ 5.97089198184659, 51.833406519190255 ], [ 5.971016714775318, 51.833367661318057 ], [ 5.971098930921708, 51.833347288628381 ], [ 5.971166491922729, 51.833337981819298 ], [ 5.971232524865963, 51.833337266643845 ], [ 5.971440486930715, 51.83334723329223 ], [ 5.971509923815406, 51.83335056383644 ], [ 5.971884286188785, 51.833399897715132 ], [ 5.972017890712834, 51.833417505592131 ], [ 5.972110947422322, 51.833429769522375 ], [ 5.972235381548614, 51.833446164469947 ], [ 5.972287711372506, 51.833431485896703 ], [ 5.972372113962901, 51.833405231886303 ], [ 5.972876600244398, 51.833395155396659 ], [ 5.973133210714899, 51.833386242934061 ], [ 5.973355559131114, 51.83337228771736 ], [ 5.973757959898925, 51.833331841701536 ], [ 5.974074235186212, 51.833287825213588 ], [ 5.974507622040585, 51.833212705584621 ], [ 5.975151924599289, 51.833102748648528 ], [ 5.975186189511412, 51.833096905163394 ], [ 5.975258191942024, 51.833087834404978 ], [ 5.975348893775271, 51.833076404753434 ], [ 5.975521553040119, 51.833067197757458 ], [ 5.976210961999721, 51.832996423623513 ], [ 5.976376319289517, 51.832968070447436 ], [ 5.9763902752381, 51.832964665613211 ], [ 5.976465174900635, 51.832946420225916 ], [ 5.976516428782146, 51.832933929382072 ], [ 5.976881957432841, 51.832833650221907 ], [ 5.977460742222904, 51.832646043089667 ], [ 5.977788932727171, 51.83254322538572 ], [ 5.977982358308961, 51.832482621524392 ], [ 5.978412574877517, 51.83237927032296 ], [ 5.978562937315468, 51.832348373937116 ], [ 5.97861887468013, 51.832336883259792 ], [ 5.978674812016161, 51.832325392555852 ], [ 5.978952960109363, 51.832278957377703 ], [ 5.97957681227452, 51.832183406954357 ], [ 5.980224787775419, 51.832092198593443 ], [ 5.980662950420988, 51.832031027196031 ], [ 5.980666860328307, 51.832030477094364 ], [ 5.980689005079862, 51.832027596605606 ], [ 5.980706630982931, 51.832025296261712 ], [ 5.980764867629344, 51.832017711938867 ], [ 5.980804044421497, 51.832012605985895 ], [ 5.98084645093688, 51.832007079193446 ], [ 5.981200736287849, 51.831960918573159 ], [ 5.981914017245459, 51.831851914438346 ], [ 5.982368740772102, 51.831764199375918 ], [ 5.98290796683792, 51.831649851880137 ], [ 5.983337618454372, 51.831552390900157 ], [ 5.98365186666528, 51.831475253941385 ], [ 5.983751805289123, 51.831450728414701 ], [ 5.984159793152502, 51.831331379542974 ], [ 5.984535001723403, 51.831220465609618 ], [ 5.984976280393964, 51.831066122694153 ], [ 5.985314056345434, 51.83094328936609 ], [ 5.98548810861629, 51.830893360350707 ], [ 5.985621878087387, 51.830858018244157 ], [ 5.985741288207768, 51.830827297451933 ], [ 5.985915581050769, 51.830792260622459 ], [ 5.986165723761146, 51.830743380458244 ], [ 5.986173471759232, 51.830742361150463 ], [ 5.986229764085428, 51.830734945825711 ], [ 5.986587821539662, 51.830687769868582 ], [ 5.986737359482483, 51.830669882617983 ], [ 5.986918901173409, 51.830652011365338 ], [ 5.987041312331491, 51.830639763383573 ], [ 5.9870572478774, 51.830638054981172 ], [ 5.987182413906388, 51.830624606276508 ], [ 5.987337930937607, 51.830617788561781 ], [ 5.987827196653693, 51.83061444898167 ], [ 5.98810780545428, 51.830625623103536 ], [ 5.988681137038693, 51.830655556504183 ], [ 5.989625246581841, 51.830710990056922 ], [ 5.99022846468466, 51.830753831825305 ], [ 5.990250337598548, 51.830755660934003 ], [ 5.990637964498731, 51.830788049214817 ], [ 5.991033002350943, 51.830824541806543 ], [ 5.991906058966111, 51.830897176252961 ], [ 5.991992838083561, 51.830903245676637 ], [ 5.992483004018106, 51.830937526182616 ], [ 5.992820145143066, 51.830961107227772 ], [ 5.993614398741371, 51.830988267048006 ], [ 5.993743374079214, 51.830976580379875 ], [ 5.994025746732412, 51.830942869293629 ], [ 5.994035190529472, 51.830941741821306 ], [ 5.994217126356876, 51.830917718041334 ], [ 5.994312702149303, 51.830911219161287 ], [ 5.994426219078931, 51.830915126001514 ], [ 5.994550468326245, 51.830927390478536 ], [ 5.995532266880278, 51.831071918859571 ], [ 5.996011754151075, 51.83114871100841 ], [ 5.996604099874498, 51.831273830880086 ], [ 5.996967732824741, 51.831368901341591 ], [ 5.997043735082103, 51.831397530426656 ], [ 5.997065812505385, 51.831405846952883 ], [ 5.997088706576586, 51.831414473829987 ], [ 5.997152255794392, 51.831438412622028 ], [ 5.997842108823908, 51.83169569963303 ], [ 5.998079098239584, 51.831770787951442 ], [ 5.998369742017566, 51.831850387230872 ], [ 5.998889843181469, 51.831974721371409 ], [ 5.999491240304277, 51.832075914877556 ], [ 5.999700445853506, 51.832111109819415 ], [ 6.000799003017704, 51.83224806350146 ], [ 6.001925389714531, 51.832413435797584 ], [ 6.002064201415208, 51.832443035899843 ], [ 6.002194240101399, 51.83247613343508 ], [ 6.002201458827242, 51.832477794438383 ], [ 6.00225677835387, 51.832490537897058 ], [ 6.002320018965959, 51.832519185533798 ], [ 6.002368169904208, 51.832534995671296 ], [ 6.002434242611796, 51.832563853112525 ], [ 6.002488766956269, 51.832593777797342 ], [ 6.002587400080902, 51.832662202888201 ], [ 6.002756207895161, 51.832729423824802 ], [ 6.003734819555747, 51.833085671332483 ], [ 6.004388470260989, 51.833324306163831 ], [ 6.004405480004848, 51.833341672501462 ], [ 6.004387771612615, 51.833388721965882 ], [ 6.004309539988528, 51.833505041117789 ], [ 6.00437009229606, 51.833527886187461 ], [ 6.00444094088384, 51.833554614057988 ], [ 6.004539295031589, 51.833591731781063 ], [ 6.005682738325907, 51.833996218336495 ], [ 6.005782608512539, 51.83402420362799 ], [ 6.006314924991704, 51.834141959834895 ], [ 6.006850988247421, 51.834272421672246 ], [ 6.007712387383397, 51.834525203375293 ], [ 6.008094747352389, 51.834637407522855 ], [ 6.008705577170462, 51.834793505169856 ], [ 6.009392978441594, 51.834943548818231 ], [ 6.009953002520387, 51.835065788753738 ], [ 6.010142235341646, 51.835127093082882 ], [ 6.010291289397517, 51.83520700110433 ], [ 6.010742622052272, 51.835464768917824 ], [ 6.010869989906389, 51.835532306315912 ], [ 6.011250593445192, 51.835732256056218 ], [ 6.011277648240601, 51.835745514133436 ], [ 6.011348002439511, 51.835779988638237 ], [ 6.011478101634373, 51.835840328978513 ], [ 6.012402729726066, 51.836239352689965 ], [ 6.013071633039369, 51.836561362025222 ], [ 6.014099166738225, 51.83713260196383 ], [ 6.014664018054242, 51.837467184855456 ], [ 6.014674010777522, 51.837473108824788 ], [ 6.014713308409867, 51.837496385830875 ], [ 6.014745159147632, 51.837515253304318 ], [ 6.01476986527519, 51.837529538851463 ], [ 6.014800217881791, 51.837547101990083 ], [ 6.01481537708272, 51.837539560390454 ], [ 6.014834447823481, 51.837529499042262 ], [ 6.015100469959656, 51.837653295724529 ], [ 6.015572014917059, 51.83786884341346 ], [ 6.015698292793937, 51.837937325241725 ], [ 6.015828977068375, 51.838027275019314 ], [ 6.015942984449524, 51.838124109376558 ], [ 6.016043333579828, 51.838242418623963 ], [ 6.016158199535641, 51.838449475103836 ], [ 6.016260729263387, 51.838664579460378 ], [ 6.016362270669632, 51.838934537324683 ], [ 6.016451133088682, 51.839262773114015 ], [ 6.01660372042032, 51.839911325533201 ], [ 6.016672998048251, 51.840147245631023 ], [ 6.016757740617256, 51.840361069693131 ], [ 6.016964299288573, 51.840760411393582 ], [ 6.017153398521782, 51.841099137612247 ], [ 6.017230252616756, 51.841194839855312 ], [ 6.017313142711249, 51.841274923447166 ], [ 6.017477173547129, 51.841386768280778 ], [ 6.017610511082603, 51.841463147064729 ], [ 6.01762451008664, 51.841469067239558 ], [ 6.017838962086217, 51.841559733258563 ], [ 6.018014199359592, 51.841610574578311 ], [ 6.0181701996688, 51.841644126179439 ], [ 6.018308078500207, 51.841668552754548 ], [ 6.018496881985445, 51.841668489998384 ], [ 6.01883020739707, 51.841650202312628 ], [ 6.019280055614465, 51.841629758049031 ], [ 6.019857426729211, 51.841623743408192 ], [ 6.020071645003431, 51.841630300508321 ], [ 6.020184054090444, 51.841638979424616 ], [ 6.020280585698918, 51.841664004227752 ], [ 6.020788858713639, 51.841892330437801 ], [ 6.021378908861727, 51.842170171066016 ], [ 6.022349761968832, 51.842637449955902 ], [ 6.022712625035033, 51.842809441388169 ], [ 6.023588401115253, 51.843131259423487 ], [ 6.023661812170641, 51.843159777555677 ], [ 6.023684064578272, 51.843168420730855 ], [ 6.025314570861214, 51.843801835935608 ], [ 6.025835375438334, 51.84399138543484 ], [ 6.026300980261641, 51.844155328177223 ], [ 6.027207928760149, 51.844471475538825 ], [ 6.027967525718791, 51.844736080071812 ], [ 6.028366462772067, 51.844867426522264 ], [ 6.02915309997671, 51.845123210694169 ], [ 6.029172593716602, 51.845094978790982 ], [ 6.029176660206828, 51.845089087002933 ], [ 6.02921426255656, 51.84503522846223 ], [ 6.030666005850161, 51.843866357129656 ], [ 6.031712372244258, 51.843045467360405 ], [ 6.032190676752401, 51.842703241741638 ], [ 6.032682246410666, 51.842351521129999 ], [ 6.033040900480771, 51.8429204578633 ], [ 6.033182849131409, 51.843121497283612 ], [ 6.033416313150705, 51.843353106167328 ], [ 6.033504204924683, 51.843407308702268 ], [ 6.033671254667356, 51.843305608556655 ], [ 6.033971165922864, 51.843145882748694 ], [ 6.03402753306141, 51.843115855809202 ], [ 6.034538131070708, 51.842931614725259 ], [ 6.03558639382877, 51.842657913754664 ], [ 6.035670506364072, 51.842638042627065 ], [ 6.035835524993251, 51.842875364173629 ], [ 6.035999029247108, 51.843092065051472 ], [ 6.036239101646863, 51.84342372875318 ], [ 6.036390461416112, 51.843598016188047 ], [ 6.036558725709284, 51.843768075140751 ], [ 6.036680699246747, 51.843881860827288 ], [ 6.03683532181412, 51.844014521462654 ], [ 6.036927294907501, 51.844081660400917 ], [ 6.036957481925731, 51.844108962390607 ], [ 6.037052669941705, 51.844149468223769 ], [ 6.037229921108226, 51.844227010856287 ], [ 6.037577059956805, 51.844377542963528 ], [ 6.037697426694022, 51.844435067947977 ], [ 6.037838428851567, 51.844505574776946 ], [ 6.038060239736261, 51.844635650093771 ], [ 6.039908405315193, 51.845832130439533 ], [ 6.040531548607412, 51.846235522486616 ], [ 6.040541260715824, 51.846242740186526 ], [ 6.040577072564998, 51.846269371748456 ], [ 6.040631178951362, 51.84630959105926 ], [ 6.040855395445452, 51.846459242858302 ], [ 6.041683528908075, 51.847011937897861 ], [ 6.041765259681029, 51.847046474650881 ], [ 6.041863374818068, 51.847087940039287 ], [ 6.042351479717003, 51.847264916101182 ], [ 6.042418094614993, 51.847192150121884 ], [ 6.043357138029213, 51.847644063324672 ], [ 6.044087250067956, 51.847923685870043 ], [ 6.044586020861225, 51.848120215082211 ], [ 6.04544504777038, 51.848447924086422 ], [ 6.045662164650462, 51.848520160902872 ], [ 6.046319595571627, 51.848759324259028 ], [ 6.046445658891624, 51.848806857969628 ], [ 6.046706342044369, 51.848909355411728 ], [ 6.047717190473474, 51.849354295725696 ], [ 6.048089399153672, 51.849521788098833 ], [ 6.048309149702418, 51.849630400017652 ], [ 6.04869691120615, 51.849827797792663 ], [ 6.049101424438265, 51.850022187519158 ], [ 6.049386764693653, 51.850142400313558 ], [ 6.050289289000389, 51.850494574241957 ], [ 6.051870267100087, 51.851015203332693 ], [ 6.052358075470976, 51.851175375978073 ], [ 6.052485069622075, 51.85122116316704 ], [ 6.052667632229015, 51.851306733270093 ], [ 6.05284988862779, 51.851392161010232 ], [ 6.053221765761578, 51.8515867936256 ], [ 6.055304602921864, 51.852354123005732 ], [ 6.055364864395226, 51.852555331172276 ], [ 6.054698231442442, 51.853255973828361 ], [ 6.053427462250263, 51.854659049895545 ], [ 6.053119025700721, 51.854995589161383 ], [ 6.052587495896583, 51.855554116230579 ], [ 6.051946924391606, 51.856166686550246 ], [ 6.051651259203052, 51.856446476454749 ], [ 6.051425008929717, 51.856659581989113 ], [ 6.051423581591934, 51.856661225988645 ], [ 6.052438366411583, 51.857014752823574 ], [ 6.053162444868802, 51.857165807854415 ], [ 6.054007048345952, 51.857364325672364 ], [ 6.054355158952742, 51.857405232150363 ], [ 6.054751285617388, 51.857426269415704 ], [ 6.054752956312747, 51.857426358788672 ], [ 6.05539448542826, 51.857460415679896 ], [ 6.056837472227419, 51.857560693680959 ], [ 6.057429464317289, 51.857592064813765 ], [ 6.058872639083139, 51.857603176919937 ], [ 6.059596120003126, 51.857627600502525 ], [ 6.059602361006481, 51.857654737259082 ], [ 6.059794699654822, 51.85852679588983 ], [ 6.05980366941589, 51.858567489767417 ], [ 6.059969297444919, 51.859318642784523 ], [ 6.060147724890316, 51.860125415432243 ], [ 6.06016099052084, 51.860185401124006 ], [ 6.060167897808009, 51.860213360974861 ], [ 6.060357360659974, 51.860980007844333 ], [ 6.060394679399852, 51.861131026804422 ], [ 6.060434454791707, 51.861291946072413 ], [ 6.060665804874172, 51.861270538500577 ], [ 6.061640726033928, 51.861180322589526 ], [ 6.061770010824226, 51.861764745745049 ], [ 6.061770690940063, 51.861764598019356 ], [ 6.061837316256019, 51.86206600694355 ], [ 6.061914173316994, 51.862280958719005 ], [ 6.061954480683861, 51.862366550061694 ], [ 6.06225490131909, 51.86300446863217 ], [ 6.062641528452352, 51.863774121517061 ], [ 6.06348555320026, 51.865451224201074 ], [ 6.060912845158128, 51.866551100529456 ], [ 6.059928480510911, 51.866966328113804 ], [ 6.058114118360438, 51.867732875219367 ], [ 6.053799436749205, 51.869335262983256 ], [ 6.052794804925155, 51.869572724292595 ], [ 6.051858148481067, 51.869766098701568 ], [ 6.051152842193539, 51.86990971805448 ], [ 6.050550273656333, 51.870032411570335 ], [ 6.049878376487502, 51.870171510955345 ], [ 6.049096387064481, 51.870333689642095 ], [ 6.048816292749776, 51.87039323570594 ], [ 6.04817459213367, 51.870529683263428 ], [ 6.047607261742753, 51.870650302575868 ], [ 6.047441967830847, 51.870685451729969 ], [ 6.046284693441971, 51.870913207739356 ], [ 6.046276165345818, 51.870914882544668 ], [ 6.046260528234936, 51.870917963518878 ], [ 6.045469892926449, 51.871037821349915 ], [ 6.044596963170023, 51.871148624772928 ], [ 6.043585445939391, 51.871265562761323 ], [ 6.043465663321308, 51.871279409616534 ], [ 6.043462155233155, 51.871279815734184 ], [ 6.043420203103434, 51.871284670350732 ], [ 6.043146172053893, 51.871314812298223 ], [ 6.042266448810187, 51.87141156021957 ], [ 6.041679964617593, 51.871476061167456 ], [ 6.040811795637178, 51.8715629452131 ], [ 6.037331562719388, 51.87253328496508 ], [ 6.035577448519582, 51.873007270996169 ], [ 6.032359751877046, 51.874107622595062 ], [ 6.03142065812022, 51.874503376558472 ], [ 6.031112332370372, 51.874637271499047 ], [ 6.029166589027911, 51.875538871205073 ], [ 6.028167551116919, 51.876049997951746 ], [ 6.027545173841771, 51.876368415444411 ], [ 6.023882689580566, 51.878402197194696 ], [ 6.02193213741115, 51.879294506249025 ], [ 6.020680337727993, 51.879772256753967 ], [ 6.019471203804405, 51.880212308833663 ], [ 6.016915678678563, 51.880985968200768 ], [ 6.014592415916423, 51.881423939571526 ], [ 6.01219049360088, 51.881671996392441 ], [ 6.009287310211922, 51.881603415262063 ], [ 6.007827896451862, 51.881488813203305 ], [ 6.006058303262779, 51.881258141499814 ], [ 6.004791763566869, 51.881031908298787 ], [ 6.004619748734517, 51.880988912973912 ], [ 6.004009530830063, 51.880836384920016 ], [ 6.001958650907399, 51.880256549610422 ], [ 5.99971502803258, 51.879336641833198 ], [ 5.997188965092483, 51.877986062970251 ], [ 5.996933862055852, 51.877833225899444 ], [ 5.996459483879262, 51.877535777454142 ], [ 5.995713588033041, 51.877078732243383 ], [ 5.995021964806894, 51.876647611898633 ], [ 5.994442122036089, 51.876240448096219 ], [ 5.993614398690496, 51.875669667597442 ], [ 5.992614748346137, 51.874926667044882 ], [ 5.992436701215455, 51.874787813521586 ], [ 5.992040521429765, 51.874473800813554 ], [ 5.991628760339653, 51.874153997488435 ], [ 5.991196615471005, 51.873810289255964 ], [ 5.990935557402208, 51.873592392981934 ], [ 5.990422092731916, 51.873173120094293 ], [ 5.989952128622338, 51.872783121975026 ], [ 5.989793743015824, 51.872651686914629 ], [ 5.989567833147269, 51.872428987108037 ], [ 5.989225636221073, 51.872029009390694 ], [ 5.988799907487968, 51.87153456692905 ], [ 5.988385968592535, 51.871025231493711 ], [ 5.988251983914051, 51.870855432238436 ], [ 5.987789366570563, 51.87028704663102 ], [ 5.987473211641747, 51.869925464378142 ], [ 5.987156468610596, 51.869519400084947 ], [ 5.986815789545794, 51.869113457193819 ], [ 5.986474919216892, 51.868692692217813 ], [ 5.986097544037709, 51.868227637276718 ], [ 5.985752838410511, 51.867757677606711 ], [ 5.985651217503166, 51.867619134245814 ], [ 5.985117670491139, 51.86681391051625 ], [ 5.984721556435786, 51.866282494431033 ], [ 5.98337168680742, 51.863418809120112 ], [ 5.9829969213007, 51.862606701875528 ], [ 5.982009092964445, 51.860925922177906 ], [ 5.981848934101754, 51.8607124920646 ], [ 5.981828807252398, 51.860685673381298 ], [ 5.981538419767046, 51.860340573362429 ], [ 5.981274990041548, 51.860050094311006 ], [ 5.981180058394663, 51.859947440350773 ], [ 5.981063595956137, 51.859821489117479 ], [ 5.98010038675742, 51.859043924890948 ], [ 5.979082820869505, 51.858222439302772 ], [ 5.9777495839954, 51.857229765066215 ], [ 5.977047580707593, 51.856822941616009 ], [ 5.976206621331055, 51.856429871716031 ], [ 5.975860235381516, 51.856303783564805 ], [ 5.974355493304974, 51.855863898608106 ], [ 5.97409217285808, 51.855785487318037 ], [ 5.972217669798779, 51.855227291700963 ], [ 5.971656260450048, 51.855054398837382 ], [ 5.970333589128035, 51.854754181282594 ], [ 5.969728797088308, 51.854654544525346 ], [ 5.969103986385512, 51.854582598687713 ], [ 5.968733683084542, 51.854548506868106 ], [ 5.96808725253558, 51.854493794876909 ], [ 5.96744773860904, 51.854451916706104 ], [ 5.966995098524676, 51.854450926687569 ], [ 5.966247298301108, 51.854449297145514 ], [ 5.964492813448504, 51.854575689466287 ], [ 5.963776421647918, 51.854636323969743 ], [ 5.9630598502296, 51.85469895042791 ], [ 5.962779849156504, 51.854731747748353 ], [ 5.961805246131997, 51.854883818010215 ], [ 5.96094200363651, 51.85503173145122 ], [ 5.960245549173552, 51.855155463163605 ], [ 5.959173208982019, 51.855373658770269 ], [ 5.957912133683562, 51.855709118764317 ], [ 5.957006282368171, 51.856083559154548 ], [ 5.956076090277373, 51.856471997719261 ], [ 5.955797829743769, 51.856625440706409 ], [ 5.955288135233125, 51.856928017258554 ], [ 5.954202763961757, 51.85757232174408 ], [ 5.952932690600468, 51.858360324871597 ], [ 5.952079818133324, 51.858955705650878 ], [ 5.951262895762336, 51.859596245400731 ], [ 5.950489719103513, 51.860239104175527 ], [ 5.949645093846592, 51.861020039977213 ], [ 5.948103863563201, 51.862499003744567 ], [ 5.946842240289242, 51.863719956316075 ], [ 5.945323433463462, 51.865168637134339 ], [ 5.9415856351356, 51.868268171075485 ], [ 5.940236669708363, 51.86926109252331 ], [ 5.937315412574621, 51.871411120624892 ], [ 5.934960507223697, 51.872641185850114 ], [ 5.932185623170159, 51.873554242246726 ], [ 5.925469718569938, 51.874392839930465 ], [ 5.923633016752697, 51.874623180785889 ], [ 5.921993755841104, 51.874640411767665 ], [ 5.921035895888782, 51.874650469728813 ], [ 5.919609571784036, 51.87453091018039 ], [ 5.918312729969359, 51.874428580775998 ], [ 5.917449473891525, 51.874378812645922 ], [ 5.914632242582911, 51.874233629284149 ], [ 5.914468570018217, 51.874222436767091 ], [ 5.914125815616234, 51.874192426080839 ], [ 5.911394959427054, 51.873903339475881 ], [ 5.909777515630797, 51.873730367320256 ], [ 5.909399233844461, 51.873679036535172 ], [ 5.909119405477221, 51.873640048491801 ], [ 5.903642433022924, 51.872547713170491 ], [ 5.90361355729609, 51.872541952747767 ], [ 5.899326488475668, 51.871460212004763 ], [ 5.899247975818322, 51.871438550720882 ], [ 5.895967774166024, 51.870533616079413 ], [ 5.895028338828205, 51.870168275867861 ], [ 5.893998449481622, 51.869695133584145 ], [ 5.893316985912243, 51.86934584271998 ], [ 5.892535739934277, 51.868954039611374 ], [ 5.892502564072366, 51.868937400961016 ], [ 5.892356473168058, 51.868860459283439 ], [ 5.89161097132641, 51.868418951832538 ], [ 5.891060821820076, 51.868105127350987 ], [ 5.890288150745127, 51.867633778594907 ], [ 5.888421874643491, 51.866463437619331 ], [ 5.88747777040339, 51.86581255668581 ], [ 5.886765709096213, 51.865203007561398 ], [ 5.885814752567767, 51.86422924993586 ], [ 5.885031995192013, 51.863440185388463 ], [ 5.884169625445324, 51.862571347533475 ], [ 5.883707574661901, 51.862067899558113 ], [ 5.88360243531627, 51.861937337386721 ], [ 5.88302961851268, 51.861169357229819 ], [ 5.882328383507835, 51.860205598979121 ], [ 5.881584193839275, 51.859100368216474 ], [ 5.883556698932802, 51.85892297029428 ], [ 5.883980350174542, 51.858884855571098 ], [ 5.884410802270619, 51.858846135245827 ], [ 5.884527680205482, 51.858834799984137 ], [ 5.885012838820435, 51.858787729050086 ], [ 5.885014245364276, 51.85878758825752 ], [ 5.886050987933049, 51.858686982978725 ], [ 5.886072115323683, 51.858684897742762 ], [ 5.886119358249765, 51.858680229667534 ], [ 5.886161090946176, 51.858676106328964 ], [ 5.886175287093955, 51.858679946974952 ], [ 5.886221529979953, 51.858692442097016 ], [ 5.886284677269992, 51.858709512361266 ], [ 5.886434726797748, 51.858742868627886 ], [ 5.886579154861476, 51.858785039343282 ], [ 5.886787493534429, 51.858851521333698 ], [ 5.8868181807046, 51.858860603894129 ], [ 5.887319533070662, 51.859009043582134 ], [ 5.887323086884731, 51.858995734493675 ], [ 5.887354080350819, 51.858879543312938 ], [ 5.887371750585022, 51.858813258949461 ], [ 5.88739495461254, 51.858578776733452 ], [ 5.887501717876026, 51.857499786154925 ], [ 5.887538858255919, 51.857124502977925 ], [ 5.887557721533258, 51.856276504053675 ], [ 5.887558002666277, 51.856263927982241 ], [ 5.887557204441388, 51.856258718071189 ], [ 5.887550362739184, 51.856213894760444 ], [ 5.887497888419708, 51.855870471164209 ], [ 5.88748747786821, 51.855802311008063 ], [ 5.887459415422414, 51.855356665274641 ], [ 5.887408207059581, 51.854543210928682 ], [ 5.887396957867519, 51.854521012397925 ], [ 5.887185246208124, 51.854103456068053 ], [ 5.886780457976228, 51.853305034762741 ], [ 5.88653079593475, 51.853283338412368 ], [ 5.886276905339198, 51.853253336185396 ], [ 5.886180543115065, 51.853233791502603 ], [ 5.886173764030154, 51.853232418122182 ], [ 5.886158387422397, 51.853229301575055 ], [ 5.886102488450867, 51.853170125390818 ], [ 5.886073359304895, 51.853094341541286 ], [ 5.885743773388308, 51.852604153348103 ], [ 5.885704197546166, 51.852482752324967 ], [ 5.885702048791526, 51.852430277743068 ], [ 5.88570459643256, 51.852390340112997 ], [ 5.885741170427873, 51.85231149963959 ], [ 5.885932341069002, 51.852071899555725 ], [ 5.885952457658831, 51.852027339087392 ], [ 5.885965164017797, 51.851983376381781 ], [ 5.885973248647066, 51.851938858054019 ], [ 5.885975727581488, 51.851887505341821 ], [ 5.885925220420651, 51.8517986621587 ], [ 5.885876551599389, 51.851704112448076 ], [ 5.885804615858731, 51.851588520671413 ], [ 5.885772609851622, 51.851497908984129 ], [ 5.885765067225797, 51.851474750756786 ], [ 5.885754775459697, 51.851443190993251 ], [ 5.885761333919513, 51.851423361517945 ], [ 5.885842855193157, 51.851176641022988 ], [ 5.885905116955247, 51.850951008375716 ], [ 5.885924386826133, 51.850852340868258 ], [ 5.885930800920265, 51.850819496679598 ], [ 5.885785638859055, 51.850799107401258 ], [ 5.885621556135732, 51.850742502829227 ], [ 5.88546342403155, 51.850664875681304 ], [ 5.88462219482803, 51.850168055702149 ], [ 5.88466098982222, 51.850152278277143 ], [ 5.884674383812193, 51.850146828414815 ], [ 5.884770065675156, 51.850154062990271 ], [ 5.884965118730721, 51.850223903258858 ], [ 5.8852160440533, 51.850325963513292 ], [ 5.885364189981789, 51.850336795062589 ], [ 5.885493387797989, 51.850307600290762 ], [ 5.88560395437346, 51.850267024192668 ], [ 5.885738833389236, 51.850193878329513 ], [ 5.885864678760822, 51.850139871210949 ], [ 5.885922147710972, 51.850105326972383 ], [ 5.886065630986018, 51.850042534845493 ], [ 5.886191244632913, 51.849992573173843 ], [ 5.886333604056128, 51.849944985012499 ], [ 5.886474871072542, 51.84991408394157 ], [ 5.886621328633589, 51.849887951470706 ], [ 5.88679602680975, 51.849853725817219 ], [ 5.886970795473695, 51.849825872434444 ], [ 5.887091556375314, 51.849803030724217 ], [ 5.887189157792083, 51.849781887509742 ], [ 5.887286670543634, 51.84975277181028 ], [ 5.887361210586746, 51.849730405413325 ], [ 5.887395048260217, 51.849717929002473 ], [ 5.887336661144306, 51.849690592199465 ], [ 5.887265975234781, 51.849657501216349 ], [ 5.88718967209592, 51.849619130919713 ], [ 5.887101178369671, 51.849554682992007 ], [ 5.887040413746684, 51.849507950042039 ], [ 5.886999720476402, 51.849461131582324 ], [ 5.886976847400901, 51.849411477757137 ], [ 5.886967430949467, 51.849367285549043 ], [ 5.886962576558038, 51.849331370279401 ], [ 5.886847432770521, 51.849211621668971 ], [ 5.88671123023091, 51.849072214891187 ], [ 5.88656920463927, 51.848942908819787 ], [ 5.886490147050438, 51.848857549029077 ], [ 5.886444984318806, 51.848809374154563 ], [ 5.886415574992185, 51.848773554330144 ], [ 5.886247769364338, 51.848532406011977 ], [ 5.88602082175829, 51.848215043849812 ], [ 5.885845770906952, 51.847978464931636 ], [ 5.885684324875231, 51.847816980650009 ], [ 5.885490982343232, 51.847659586517544 ], [ 5.885420524250643, 51.847640111009397 ], [ 5.884377718285918, 51.847012463640354 ], [ 5.883605987534045, 51.846525265211035 ], [ 5.883381182306145, 51.846407559007339 ], [ 5.883201277961716, 51.846309437260693 ], [ 5.883078870061855, 51.846211072294992 ], [ 5.882847319662574, 51.846061745133873 ], [ 5.882629194026503, 51.845971693804891 ], [ 5.882430456709504, 51.845901334910799 ], [ 5.882186966116086, 51.845827209530079 ], [ 5.881962805534489, 51.845768821875609 ], [ 5.881668322522673, 51.845702829254485 ], [ 5.88142509475574, 51.845652430779907 ], [ 5.88129042869105, 51.845601574761339 ], [ 5.8811813178993, 51.845550620005071 ], [ 5.8809058034405, 51.845340253547846 ], [ 5.880877895128427, 51.84531895141015 ], [ 5.880864855589023, 51.845308993098399 ], [ 5.880834304253789, 51.845320608896785 ], [ 5.88080827637539, 51.84533050683725 ], [ 5.880628533156157, 51.845316350871627 ], [ 5.880610508040323, 51.845314934574688 ], [ 5.88057519506232, 51.845273439417952 ], [ 5.880389295583756, 51.845054973840604 ], [ 5.881215177693178, 51.844773270475294 ], [ 5.88179886891809, 51.844596686903273 ], [ 5.883739248084746, 51.844131212395325 ], [ 5.884020811439435, 51.844063353068613 ], [ 5.884158918923451, 51.844014625948532 ], [ 5.884472647358314, 51.843888410897229 ], [ 5.884567389925279, 51.843842042263361 ], [ 5.884994278091789, 51.843633164411848 ], [ 5.88540771394169, 51.843429879012454 ], [ 5.886257602740685, 51.843032347200037 ], [ 5.886690081317728, 51.842843492653238 ], [ 5.887193994819878, 51.84264543353877 ], [ 5.88756399934152, 51.842503986539924 ], [ 5.888064570216129, 51.842334853877126 ], [ 5.888445329198874, 51.842213582273907 ], [ 5.888812854807963, 51.842105588065039 ], [ 5.889347760789966, 51.8419595563375 ], [ 5.889869262741807, 51.841829803804153 ], [ 5.890773411695328, 51.841597089180041 ], [ 5.891252745043024, 51.841486234455118 ], [ 5.891648142216547, 51.841381608116627 ], [ 5.891901463983919, 51.841312143370061 ], [ 5.891954095138571, 51.84129662756142 ], [ 5.892039882591708, 51.841273256959568 ], [ 5.892136060728545, 51.841246093381756 ], [ 5.89223831023557, 51.841218166537431 ], [ 5.892322176214042, 51.841195577008499 ], [ 5.892419937938574, 51.841168613115286 ], [ 5.892557632571004, 51.841129944931794 ], [ 5.892625434877773, 51.841111244474796 ], [ 5.892718569149078, 51.841085738421967 ], [ 5.892792689426482, 51.841064979249971 ], [ 5.892954024351996, 51.84102010555074 ], [ 5.89319659610204, 51.840952508991165 ], [ 5.89332878534611, 51.840913441178969 ], [ 5.893457347702268, 51.840875755115867 ], [ 5.893914274711427, 51.840740213849777 ], [ 5.894530377880542, 51.840556757147482 ], [ 5.894402704293547, 51.840526334732566 ], [ 5.893951607130806, 51.84041886678785 ], [ 5.893455165436172, 51.840300968359053 ], [ 5.893430285878211, 51.840295053406528 ], [ 5.893167863464646, 51.840234452284207 ], [ 5.893157358343414, 51.840230623540819 ], [ 5.893128118845064, 51.840220224088618 ], [ 5.893113838718482, 51.840214901550844 ], [ 5.893047169851682, 51.840188403265138 ], [ 5.893007095563878, 51.840171947303517 ], [ 5.892940092986112, 51.840163526256148 ], [ 5.892834592805038, 51.840176960303189 ], [ 5.89273060184999, 51.840194288759157 ], [ 5.892635618169042, 51.840209996349934 ], [ 5.892608213904643, 51.840214419877277 ], [ 5.892577347838768, 51.840219397617652 ], [ 5.892550580784881, 51.840223710525152 ], [ 5.892479315371898, 51.840234974396587 ], [ 5.892441792228501, 51.840187227300852 ], [ 5.892433946039676, 51.840177238914762 ], [ 5.892429573791179, 51.840171657909146 ], [ 5.892358736562953, 51.840078815135897 ], [ 5.892169494405457, 51.840013150792736 ], [ 5.89239863192019, 51.839734060490777 ], [ 5.892565870004145, 51.839529040858686 ], [ 5.892583432480603, 51.839507509682456 ], [ 5.892608063077292, 51.83951068439513 ], [ 5.892633752335492, 51.839511220913735 ], [ 5.892659762581795, 51.839509329150594 ], [ 5.89270342296836, 51.839496305497299 ], [ 5.892731450027698, 51.839487942302426 ], [ 5.892805058601484, 51.839465783110128 ], [ 5.892859269513364, 51.839449028653917 ], [ 5.892908790507462, 51.839429418067127 ], [ 5.892972417382806, 51.839400937934151 ], [ 5.893036074983523, 51.839371325083597 ], [ 5.893105049997911, 51.839339729780477 ], [ 5.893118481530407, 51.839332831625306 ], [ 5.893136280565133, 51.839327217968773 ], [ 5.893152252404732, 51.839325576114248 ], [ 5.893171299593241, 51.839325152420301 ], [ 5.893206256943644, 51.83932276354156 ], [ 5.893237878005559, 51.8393204699371 ], [ 5.893283549714243, 51.839317306759682 ], [ 5.893309713970155, 51.83931492880911 ], [ 5.893337134535307, 51.839306846727986 ], [ 5.89335751277492, 51.839297042262345 ], [ 5.893369820879116, 51.839287020928154 ], [ 5.893376312174193, 51.839277159512868 ], [ 5.893380663312628, 51.839270534199144 ], [ 5.893384225075174, 51.839263390957825 ], [ 5.893384849365688, 51.83925309643822 ], [ 5.893383460107685, 51.839244392579886 ], [ 5.893376088808959, 51.839232766300817 ], [ 5.893363643148064, 51.839218932764027 ], [ 5.893341443117067, 51.839193168626927 ], [ 5.893303522787818, 51.839153980560809 ], [ 5.893253453466628, 51.839107977668917 ], [ 5.893191170772653, 51.839049425553696 ], [ 5.893295804753427, 51.839000481368544 ], [ 5.893355059601662, 51.838971678318416 ], [ 5.893580466872127, 51.83887552659673 ], [ 5.893871706552434, 51.838761427793848 ], [ 5.894234688569516, 51.838600206186413 ], [ 5.894240030494651, 51.838597828116988 ], [ 5.894386453407788, 51.838540073407252 ], [ 5.894597399741878, 51.838478273334303 ], [ 5.894923940112139, 51.838386328692884 ], [ 5.894976127296788, 51.838420618691309 ], [ 5.895000364458573, 51.838436549280402 ], [ 5.895040233008688, 51.83841939746398 ], [ 5.895246383385969, 51.838295317704421 ], [ 5.895284294324694, 51.838271864355349 ], [ 5.895363622865999, 51.83821683480884 ], [ 5.895463008789152, 51.838126249717526 ], [ 5.895655345131747, 51.837950931709472 ], [ 5.895804663446035, 51.837854404265265 ], [ 5.895930413606134, 51.837792224991382 ], [ 5.896307728055923, 51.837571745504988 ], [ 5.896386921905446, 51.837531969321063 ], [ 5.896410426132485, 51.837522860844636 ], [ 5.896528221676468, 51.837477218326995 ], [ 5.896680724539378, 51.837395713687329 ], [ 5.896905530560084, 51.837256736917787 ], [ 5.897075010489979, 51.837111366629756 ], [ 5.897263069379622, 51.836937233026013 ], [ 5.897318575772588, 51.83683928672977 ], [ 5.897393514707344, 51.836689248449417 ], [ 5.897340501785995, 51.836576933940485 ], [ 5.897577019983931, 51.836482299133088 ], [ 5.897701748945781, 51.836444499187344 ], [ 5.897709199276312, 51.836459198923968 ], [ 5.897942954343611, 51.836412735782226 ], [ 5.898002550294709, 51.836392818499952 ], [ 5.898087840588577, 51.836404734444493 ], [ 5.898289760729368, 51.836363307952567 ], [ 5.89827186522992, 51.836323189325768 ], [ 5.898216884456675, 51.836210227613194 ], [ 5.89817914870429, 51.836159328282044 ], [ 5.898011031995654, 51.83597401630643 ], [ 5.897925058197498, 51.835878734935022 ], [ 5.897816384008384, 51.835751993664346 ], [ 5.89777425852512, 51.83570287505254 ], [ 5.897720269700141, 51.835623480840887 ], [ 5.897644813660743, 51.835487013128919 ], [ 5.897643347080413, 51.835484349924258 ], [ 5.897617943599535, 51.835439706688724 ], [ 5.897605729870705, 51.835418196405307 ], [ 5.89754301101225, 51.835317366557462 ], [ 5.897519845098333, 51.835242260524353 ], [ 5.897509211378223, 51.835207808904741 ], [ 5.897483599060575, 51.835174159485376 ], [ 5.897464233634673, 51.83515018148664 ], [ 5.89740501187712, 51.835089029578889 ], [ 5.897369917944329, 51.835059843707228 ], [ 5.897327120590531, 51.835037127085272 ], [ 5.897093057690109, 51.834932817239171 ], [ 5.89675496486727, 51.834773113205181 ], [ 5.896802285121229, 51.83473784354301 ], [ 5.896725307574417, 51.834669128184714 ], [ 5.896570986826178, 51.834531375318385 ], [ 5.896247538990107, 51.834215161373677 ], [ 5.896224087802197, 51.834186454968204 ], [ 5.896178259790075, 51.834127815046251 ], [ 5.896139693454633, 51.834071103100975 ], [ 5.896104803908724, 51.834016208849661 ], [ 5.896052585658774, 51.83392101339151 ], [ 5.895989469192053, 51.83382944259364 ], [ 5.895961150161127, 51.833791049661968 ], [ 5.895943240522948, 51.833762247262605 ], [ 5.895934695659123, 51.833750743076351 ], [ 5.895861168575159, 51.833667405874564 ], [ 5.895835178453174, 51.833637371111401 ], [ 5.895794020343087, 51.8335784770928 ], [ 5.895761399302435, 51.833512409184948 ], [ 5.895735288349433, 51.833449818567232 ], [ 5.895720437643707, 51.833415645727634 ], [ 5.895709350611847, 51.833355021387924 ], [ 5.89570672221067, 51.833309838588356 ], [ 5.895704471882634, 51.833278864972691 ], [ 5.895705419581317, 51.833239446280892 ], [ 5.895715726094208, 51.833180841515784 ], [ 5.895760121741531, 51.832913645608663 ], [ 5.895773011313777, 51.83286666975097 ], [ 5.89577834801785, 51.832847195497081 ], [ 5.895829462061906, 51.832720182093553 ], [ 5.895847826165274, 51.8326723735277 ], [ 5.895869454296388, 51.832638671746437 ], [ 5.895893555439758, 51.832604276112427 ], [ 5.89588904135754, 51.832584826585403 ], [ 5.895925321587182, 51.832567734939779 ], [ 5.895973464386259, 51.832545063912882 ], [ 5.896365142185128, 51.832360601537495 ], [ 5.896665000613631, 51.832240669564762 ], [ 5.896903648171148, 51.832187364886501 ], [ 5.897087448864959, 51.832146315724529 ], [ 5.897654090868367, 51.83209304874746 ], [ 5.897894665135691, 51.832069090123014 ], [ 5.898024643246213, 51.832056452719726 ], [ 5.89811699481493, 51.832045713811915 ], [ 5.898261232406671, 51.832029095061195 ], [ 5.898632385267178, 51.831985420541542 ], [ 5.899176224680563, 51.831922609920397 ], [ 5.899340825875663, 51.83189537543619 ], [ 5.900083447593873, 51.831772512394039 ], [ 5.90014373007078, 51.831762541267999 ], [ 5.900853599809748, 51.831672435818078 ], [ 5.901325776007905, 51.831628463238971 ], [ 5.901722180321626, 51.831566978886407 ], [ 5.901751810659495, 51.831562381651793 ], [ 5.90193136783865, 51.831547958463474 ], [ 5.902073022043069, 51.83153658665222 ], [ 5.902130304029358, 51.831531984821709 ], [ 5.902216486159997, 51.831524910104143 ], [ 5.902502144015961, 51.831524950160421 ], [ 5.902795282136667, 51.831524489246462 ], [ 5.90302318617637, 51.831514525936065 ], [ 5.903229418393852, 51.831494680258587 ], [ 5.903394469131831, 51.831463977522198 ], [ 5.904388456624091, 51.831242105084883 ], [ 5.90482385935414, 51.8311309475719 ], [ 5.904850677732044, 51.831124096854268 ], [ 5.905277312737454, 51.830996293658195 ], [ 5.905446797673237, 51.830970467181807 ], [ 5.905643895765197, 51.830912348561434 ], [ 5.905650069582403, 51.830910532566001 ], [ 5.905650966003932, 51.830910267937895 ], [ 5.905851111219847, 51.830853501756017 ], [ 5.905862730893787, 51.830849648248247 ], [ 5.906080772276039, 51.830777288385029 ], [ 5.906286479158108, 51.830692129115342 ], [ 5.906290204285099, 51.830690584586776 ], [ 5.90637110361827, 51.83065709497015 ], [ 5.906376879058478, 51.830654705434306 ], [ 5.906508129450095, 51.830590656671177 ], [ 5.906672285818416, 51.830491694500644 ], [ 5.906800173677765, 51.830399076825223 ], [ 5.906839486474823, 51.83036619351288 ], [ 5.906856876264805, 51.830351968570994 ], [ 5.90687847717775, 51.830334318327225 ], [ 5.906901658866474, 51.830315366731227 ], [ 5.906925027254665, 51.83029625251028 ], [ 5.907100491018121, 51.830152755489493 ], [ 5.907113296214428, 51.830142290046126 ], [ 5.907181450348371, 51.830089414189338 ], [ 5.907196648338466, 51.830077616820219 ], [ 5.907279123110025, 51.830013621561555 ], [ 5.907316722594597, 51.829984439959681 ], [ 5.907370533880317, 51.829945838414588 ], [ 5.907480889887603, 51.829871697198875 ], [ 5.907594725099577, 51.829801135850772 ], [ 5.907684591714315, 51.829745430877999 ], [ 5.907728393912736, 51.829710720653466 ], [ 5.907819746328696, 51.829630470340135 ], [ 5.907928425396352, 51.829539401776891 ], [ 5.907986928348563, 51.829501399327441 ], [ 5.908069059811229, 51.829448047427441 ], [ 5.90824944409841, 51.829353028831967 ], [ 5.908275153479165, 51.829339485807331 ], [ 5.908346896634418, 51.829302377152025 ], [ 5.908279494049685, 51.829260745117487 ], [ 5.90823047022051, 51.82923275688654 ], [ 5.908206024077101, 51.82921754902182 ], [ 5.908153728928489, 51.829161333373143 ], [ 5.908131483332457, 51.829129424049739 ], [ 5.908089554335998, 51.829062609827503 ], [ 5.908042508231701, 51.829011170690876 ], [ 5.908037976864363, 51.829006957217217 ], [ 5.908017837538223, 51.828990327985238 ], [ 5.907945704549755, 51.828946020204782 ], [ 5.907883977306489, 51.828912110852819 ], [ 5.907842261738586, 51.82889257518319 ], [ 5.907822675561473, 51.828883628643261 ], [ 5.907759409755091, 51.828858417947444 ], [ 5.907695949691561, 51.828831455319104 ], [ 5.907649463874946, 51.828813378906865 ], [ 5.907573739567312, 51.828779612381197 ], [ 5.907453890631459, 51.828724936452353 ], [ 5.907337405215435, 51.828675081310479 ], [ 5.907229229751228, 51.828624991471983 ], [ 5.90711018270351, 51.828578131647014 ], [ 5.906966347748547, 51.828520298684658 ], [ 5.90694444166778, 51.82851142519641 ], [ 5.906828816295441, 51.828469376760978 ], [ 5.906755138374311, 51.828443133020848 ], [ 5.906648989525917, 51.828406399596091 ], [ 5.906597849594213, 51.828388469214886 ], [ 5.906492976591034, 51.828347873928337 ], [ 5.906418504552176, 51.828316887557001 ], [ 5.906362916671782, 51.828293134224545 ], [ 5.906278703557682, 51.828258999948147 ], [ 5.906222849749613, 51.828233557885476 ], [ 5.90614495389613, 51.828196222619994 ], [ 5.906121955754192, 51.828184450519188 ], [ 5.906102185638924, 51.828168295718299 ], [ 5.906043134059873, 51.828124656983675 ], [ 5.90598551104302, 51.828077829968215 ], [ 5.90594291730773, 51.828037327305125 ], [ 5.905862049707126, 51.827956033179248 ], [ 5.905778143132181, 51.827866536928411 ], [ 5.905700796037173, 51.827781011516585 ], [ 5.905610864225666, 51.827684719492609 ], [ 5.905556939936433, 51.82762768294733 ], [ 5.90549222499504, 51.827564518939553 ], [ 5.905456658633145, 51.827534564536229 ], [ 5.905433087228106, 51.827517051172492 ], [ 5.905410858300541, 51.827501482381862 ], [ 5.905379202157048, 51.827484822673483 ], [ 5.905349825025575, 51.82747081349148 ], [ 5.90530362063578, 51.827450514748151 ], [ 5.905252263088731, 51.827436225093066 ], [ 5.905218575189338, 51.827428311149802 ], [ 5.905195788271361, 51.827426020818805 ], [ 5.904942392491966, 51.827385846134611 ], [ 5.904799709157884, 51.827364534769877 ], [ 5.904524899705631, 51.827321577335724 ], [ 5.904503855466817, 51.827318182587298 ], [ 5.904481256132983, 51.827314534024978 ], [ 5.904456224402328, 51.827308765904959 ], [ 5.904409008045321, 51.82729630026865 ], [ 5.904179486409842, 51.827238014691751 ], [ 5.904144236119292, 51.827229181508898 ], [ 5.903981349285336, 51.827189163190617 ], [ 5.903975806766438, 51.82718780337408 ], [ 5.903933888415723, 51.82725019752197 ], [ 5.903557033657457, 51.827270975375967 ], [ 5.903223249801712, 51.82728937836908 ], [ 5.902940829248116, 51.827304938966449 ], [ 5.902799336294241, 51.827312742723642 ], [ 5.902724168094098, 51.827316884187155 ], [ 5.90260126051943, 51.827323662240644 ], [ 5.90226950543327, 51.827341945743548 ], [ 5.901995333316458, 51.827357063366136 ], [ 5.901820235290352, 51.827366712226983 ], [ 5.901431824201778, 51.827388118195465 ], [ 5.901361034504296, 51.827278966357525 ], [ 5.901311907438269, 51.827203237711259 ], [ 5.901262795043351, 51.827127508979935 ], [ 5.901213682813895, 51.827051780227166 ], [ 5.901163891597759, 51.826975011760808 ], [ 5.901067602542024, 51.826826556825388 ], [ 5.90104034460381, 51.82678452908003 ], [ 5.901018653503752, 51.826751087942341 ], [ 5.900971151794193, 51.826677859828557 ], [ 5.900922040547226, 51.826602130948267 ], [ 5.900872929465717, 51.826526402046547 ], [ 5.900823804044282, 51.826450673186876 ], [ 5.900788558244459, 51.826396321148543 ], [ 5.900739411715419, 51.826384878192414 ], [ 5.900630078936683, 51.826215581699387 ], [ 5.900561184206501, 51.826111993959991 ], [ 5.900533530923463, 51.826069563342934 ], [ 5.900323659631058, 51.825747506221028 ], [ 5.90036299709826, 51.825654338992301 ], [ 5.900443914139839, 51.825538788217663 ], [ 5.900512815628723, 51.825438129996577 ], [ 5.900123482832461, 51.825359349745426 ], [ 5.899916866948598, 51.825057672592528 ], [ 5.899815562634009, 51.824943233100448 ], [ 5.899714561707329, 51.824852863436689 ], [ 5.899635652898055, 51.824791798617312 ], [ 5.899443625160747, 51.824707345250509 ], [ 5.899256357951644, 51.824654968775825 ], [ 5.899095307755472, 51.824615807573849 ], [ 5.898821260885803, 51.824563952857105 ], [ 5.898369346333449, 51.824513187267236 ], [ 5.89782179817866, 51.824449614138999 ], [ 5.896313797709601, 51.824268766809475 ], [ 5.89482750780348, 51.824087770235707 ], [ 5.894375557814246, 51.824034310867397 ], [ 5.894158261234811, 51.824045299271972 ], [ 5.89393669397815, 51.823986123422387 ], [ 5.893711177152722, 51.823927818117532 ], [ 5.893523133071819, 51.824280341344299 ], [ 5.892339192252608, 51.823893959751466 ], [ 5.892115193133076, 51.823819420589118 ], [ 5.891825619999133, 51.823720579518067 ], [ 5.891360011367528, 51.823563251138204 ], [ 5.890966641330413, 51.82343055383933 ], [ 5.890880954656239, 51.823401574289079 ], [ 5.890867646668076, 51.823397074252846 ], [ 5.890865914009972, 51.823396488450328 ], [ 5.890627185841959, 51.823315744704082 ], [ 5.89061266921887, 51.823310818377323 ], [ 5.890490406708738, 51.823269348662137 ], [ 5.890174993839988, 51.823162812362959 ], [ 5.890107133531292, 51.823140209566247 ], [ 5.890055171914084, 51.823122904720911 ], [ 5.88985594384714, 51.823055167240021 ], [ 5.889709048014275, 51.823005424970866 ], [ 5.889349988151717, 51.822884098564607 ], [ 5.889247876152862, 51.822849210776063 ], [ 5.889124142207503, 51.822806936973961 ], [ 5.889042575211266, 51.822779071011603 ], [ 5.888799075687622, 51.822697804660841 ], [ 5.888750375876666, 51.822691972608432 ], [ 5.888604603031947, 51.822827612176759 ], [ 5.888502355088264, 51.822922518402386 ], [ 5.888346263043216, 51.823068169995793 ], [ 5.888313914160205, 51.823100523004328 ], [ 5.888148207111013, 51.823036450561297 ], [ 5.887937200300457, 51.822954000998301 ], [ 5.887727906415112, 51.822874213335993 ], [ 5.887364644075172, 51.822730454495506 ], [ 5.886958060868409, 51.822571257071218 ], [ 5.88654251641205, 51.822409426802174 ], [ 5.886098401151327, 51.822238476393274 ], [ 5.88583063983456, 51.82213853008831 ], [ 5.885563458842848, 51.82203586617949 ], [ 5.885293463019773, 51.821934319203315 ], [ 5.885026071668836, 51.821832086417245 ], [ 5.884837018544274, 51.821759856939536 ], [ 5.884462135318114, 51.8216181338951 ], [ 5.884266371718835, 51.821544889280261 ], [ 5.884013361808148, 51.821448175118817 ], [ 5.884031331440965, 51.821409906839158 ], [ 5.883876420437856, 51.821381979385365 ], [ 5.883698457330897, 51.82135230665444 ], [ 5.883454618757519, 51.821309780145612 ], [ 5.883369292919993, 51.821295633629916 ], [ 5.88309695287491, 51.821247752928201 ], [ 5.882834972393119, 51.821202767067355 ], [ 5.882565832022737, 51.821156894030793 ], [ 5.882301731663663, 51.821108967703431 ], [ 5.88221911462218, 51.821095752713646 ], [ 5.882055650212468, 51.821066681461659 ], [ 5.881931577727014, 51.821045344751923 ], [ 5.881917688415168, 51.821040594477651 ], [ 5.881890105745387, 51.821030445925189 ], [ 5.881863068305812, 51.821019755756602 ], [ 5.88183660530173, 51.821008541826188 ], [ 5.881810716832319, 51.820996813122321 ], [ 5.881756905970152, 51.820974370985574 ], [ 5.881189677893853, 51.820725010937743 ], [ 5.881172134383918, 51.820717678285284 ], [ 5.881155165405048, 51.820709830866008 ], [ 5.881138843672452, 51.820701486350941 ], [ 5.881123183886959, 51.82069266265551 ], [ 5.881108229756442, 51.820683377572919 ], [ 5.881094010682191, 51.820673666933743 ], [ 5.881080555671242, 51.820663530616017 ], [ 5.881067923230329, 51.820653013316324 ], [ 5.881056113457725, 51.820642124022953 ], [ 5.881045155852851, 51.820630907554552 ], [ 5.881035093925932, 51.820619363728142 ], [ 5.881025942672657, 51.820607537423328 ], [ 5.881007540154675, 51.820582698749597 ], [ 5.881008194431748, 51.820580197190139 ], [ 5.880992144712877, 51.820558287851497 ], [ 5.880976991666047, 51.820536141034992 ], [ 5.880962764297187, 51.820513756618894 ], [ 5.880949448298665, 51.820491152640727 ], [ 5.880937058468314, 51.820468356004071 ], [ 5.880925609308374, 51.82044536664818 ], [ 5.880919069580881, 51.820430958629899 ], [ 5.880841930143653, 51.820419786976132 ], [ 5.880628929132273, 51.82038863012685 ], [ 5.88061678336535, 51.820386775653041 ], [ 5.880539821662952, 51.820375926639727 ], [ 5.880536188120325, 51.820375240817569 ], [ 5.880533026499117, 51.820373941792099 ], [ 5.880530584440913, 51.820372127395402 ], [ 5.880529095871127, 51.820369967425385 ], [ 5.880528664183934, 51.820367632228873 ], [ 5.880529320453001, 51.820365310433907 ], [ 5.880537456148094, 51.820337393867248 ], [ 5.880535245423001, 51.820336836888828 ], [ 5.880492500996684, 51.820326167520165 ], [ 5.880619029822822, 51.820133685776398 ], [ 5.880742604320391, 51.819945683607372 ], [ 5.880748317648784, 51.819936302531652 ], [ 5.880753144106191, 51.81992672743997 ], [ 5.880757069583675, 51.81991699434586 ], [ 5.880760079972346, 51.819907139262831 ], [ 5.880762161064879, 51.819897189216199 ], [ 5.880763313354231, 51.819887189146542 ], [ 5.88076352253465, 51.819877157091064 ], [ 5.88076333542682, 51.819874641095993 ], [ 5.880762803602413, 51.819867137929222 ], [ 5.880761142350251, 51.819857158686339 ], [ 5.880751011041559, 51.819794245801596 ], [ 5.880746762649559, 51.819767882404406 ], [ 5.880744793320216, 51.819756259560393 ], [ 5.880743925845652, 51.819744596126249 ], [ 5.880744174925203, 51.819732910017187 ], [ 5.880745512240755, 51.819721264271955 ], [ 5.880747952491652, 51.819709676805665 ], [ 5.880751481764604, 51.819698201607835 ], [ 5.880756100452679, 51.819686874630719 ], [ 5.880795402436219, 51.81962565031921 ], [ 5.880838621987423, 51.819597666989907 ], [ 5.880850764973022, 51.819590020598319 ], [ 5.88086223637505, 51.819581972548932 ], [ 5.880872978476227, 51.819573550050364 ], [ 5.880882962565768, 51.81956478018914 ], [ 5.880892303290546, 51.819555536643854 ], [ 5.880900570775137, 51.819546297614899 ], [ 5.880908137572285, 51.819536648062993 ], [ 5.880914845920148, 51.819526750445512 ], [ 5.881026541718628, 51.819358851315378 ], [ 5.881035221023012, 51.81934484663298 ], [ 5.8810436010767, 51.819331328589207 ], [ 5.881059831667314, 51.819303620591022 ], [ 5.88107526259655, 51.819275736187052 ], [ 5.881089864859518, 51.81924767549981 ], [ 5.881103638654666, 51.819219456505742 ], [ 5.881116569578863, 51.819191088254321 ], [ 5.881391180814157, 51.818446429064345 ], [ 5.881396287785168, 51.818433365219846 ], [ 5.881400435988916, 51.818420161598368 ], [ 5.881403640520591, 51.818406872067442 ], [ 5.88140587237537, 51.818393496749415 ], [ 5.881407131948477, 51.81838007159665 ], [ 5.881407419635155, 51.81836663256162 ], [ 5.881406735534868, 51.818353188632386 ], [ 5.881405080141451, 51.818339784749405 ], [ 5.881402125155471, 51.818321613442798 ], [ 5.881390787849389, 51.818251937332825 ], [ 5.881387428690902, 51.81823129588809 ], [ 5.881337195092489, 51.817922437576271 ], [ 5.881335144800672, 51.817910051057019 ], [ 5.881334022187518, 51.817897615687166 ], [ 5.881333827547996, 51.817885158431167 ], [ 5.881334561275648, 51.817872715241243 ], [ 5.881336238069514, 51.817860304032607 ], [ 5.881338843721908, 51.817847951830487 ], [ 5.881342364025169, 51.817835685660285 ], [ 5.881346799372895, 51.817823541474255 ], [ 5.881497540707842, 51.817443591173244 ], [ 5.881506200395265, 51.817422557518022 ], [ 5.881515819014845, 51.817401681614179 ], [ 5.881526396861196, 51.817380990425789 ], [ 5.881537934031742, 51.81736049294063 ], [ 5.881550401717589, 51.817340207256905 ], [ 5.881563814617379, 51.817320151289316 ], [ 5.881578143922365, 51.817300343136075 ], [ 5.881736464226338, 51.817081371765362 ], [ 5.881972975627526, 51.816753417239632 ], [ 5.882078277122464, 51.816615682476019 ], [ 5.882246945773137, 51.816396540884696 ], [ 5.88235997861625, 51.816224769681753 ], [ 5.882368437614355, 51.816211925340717 ], [ 5.882350714257141, 51.816190724348459 ], [ 5.882345448321366, 51.816183996204508 ], [ 5.882339387536917, 51.816177523093941 ], [ 5.882332575904208, 51.816171349773505 ], [ 5.88232970889743, 51.816169123736003 ], [ 5.882404628254639, 51.816055462308299 ], [ 5.882416469627827, 51.816054792107671 ], [ 5.882428377188385, 51.816053546361537 ], [ 5.882440089898643, 51.816051726171999 ], [ 5.882451535544241, 51.816049358809643 ], [ 5.882462656215337, 51.816046453507518 ], [ 5.882482970239063, 51.816039464554436 ], [ 5.882570572215535, 51.815923879852903 ], [ 5.882702854567782, 51.815752737097625 ], [ 5.882752819350584, 51.815689732256224 ], [ 5.882766723067229, 51.815672199843029 ], [ 5.882780014459743, 51.815655694705832 ], [ 5.882896273997765, 51.815511288341156 ], [ 5.882979179727713, 51.81541721470586 ], [ 5.883043467049826, 51.8153102492915 ], [ 5.883046579189977, 51.815305759855079 ], [ 5.883072725543118, 51.815267394203445 ], [ 5.883118238782956, 51.815200596888708 ], [ 5.883334328976151, 51.814883494067942 ], [ 5.883478925596129, 51.814672236497216 ], [ 5.883484605965637, 51.814663925051526 ], [ 5.883573110228332, 51.814534619274596 ], [ 5.883574651644845, 51.814532365622519 ], [ 5.883614351390329, 51.814476405891881 ], [ 5.884020379042625, 51.813906360858574 ], [ 5.884191475514686, 51.813714513174752 ], [ 5.884670859011075, 51.813274991809735 ], [ 5.885132732808265, 51.812851506379971 ], [ 5.88565522306229, 51.812372419180214 ], [ 5.885952524522704, 51.812498648488145 ], [ 5.885958209128941, 51.812501266939798 ], [ 5.886044985081217, 51.812430382968991 ], [ 5.886163564758127, 51.812333494680082 ], [ 5.886060929406788, 51.812196550727251 ], [ 5.88597544127754, 51.812028694154719 ], [ 5.885948311930697, 51.811939859128607 ], [ 5.885929899783117, 51.811849872452363 ], [ 5.885925556939998, 51.811719530413143 ], [ 5.885930351191059, 51.811650882676005 ], [ 5.885932902982094, 51.811615466044259 ], [ 5.885953388299423, 51.811537709130846 ], [ 5.885978077439732, 51.811476850731125 ], [ 5.886132839124652, 51.81117205690299 ], [ 5.886152468963648, 51.811129718360505 ], [ 5.886172793075386, 51.811068887473262 ], [ 5.886187127603487, 51.811001457524355 ], [ 5.88619184548941, 51.810936432468203 ], [ 5.886188960807053, 51.810872356585506 ], [ 5.886178840247889, 51.810808293509616 ], [ 5.886160579605408, 51.810746395341923 ], [ 5.886135416257505, 51.810684472604414 ], [ 5.886074835491037, 51.810585326242709 ], [ 5.886028685273165, 51.810528265652479 ], [ 5.885981575291792, 51.810477501090624 ], [ 5.885919266278496, 51.810421300164862 ], [ 5.885852773421253, 51.810372262868846 ], [ 5.88579968357508, 51.810336696282356 ], [ 5.885783119101562, 51.810325809691953 ], [ 5.885710284574293, 51.81028417885009 ], [ 5.885628976203902, 51.810242053652239 ], [ 5.885546965948541, 51.810203320053233 ], [ 5.885284566081469, 51.810093812971274 ], [ 5.885045301497883, 51.809993968637507 ], [ 5.884984172689424, 51.80996830520332 ], [ 5.884762493005153, 51.809886317759251 ], [ 5.88467370226491, 51.809858497416698 ], [ 5.884489835886879, 51.809806217920467 ], [ 5.884382088635102, 51.809779313665224 ], [ 5.884179746637823, 51.809734707303924 ], [ 5.884115716216724, 51.809720668883543 ], [ 5.884028506541783, 51.809707294897464 ], [ 5.883883252004157, 51.809688782549891 ], [ 5.88332251231276, 51.809616533175458 ], [ 5.883034495941306, 51.809579262315886 ], [ 5.882808343928906, 51.809550277427967 ], [ 5.882619611678543, 51.809525960880784 ], [ 5.88244845105397, 51.809503978756283 ], [ 5.882303708437139, 51.80949102618893 ], [ 5.882140005712501, 51.809481317416136 ], [ 5.882009610953884, 51.809476887973766 ], [ 5.881859367867486, 51.809476694797652 ], [ 5.881755654833767, 51.809480242204188 ], [ 5.881715028624157, 51.809481977510529 ], [ 5.881527571476119, 51.809493185451679 ], [ 5.881066618501273, 51.809530919661476 ], [ 5.881058650411877, 51.80953158241023 ], [ 5.880629119359899, 51.809566647820269 ], [ 5.88001620316399, 51.809616792091184 ], [ 5.879856675514951, 51.809629524897588 ], [ 5.879297537802852, 51.809675421628995 ], [ 5.879279225181418, 51.809671597446567 ], [ 5.879264783550675, 51.809661069562878 ], [ 5.879251093621149, 51.809652983400689 ], [ 5.879067186521059, 51.809668055552585 ], [ 5.879076881760616, 51.80963564723767 ], [ 5.879110108282533, 51.809529874815986 ], [ 5.879287048500332, 51.808742709059992 ], [ 5.879455151190144, 51.808035119455511 ], [ 5.87995880308319, 51.805914886272127 ], [ 5.879982935700871, 51.805813277484276 ], [ 5.880001205012757, 51.805736366823531 ], [ 5.880553263478113, 51.803424318543371 ], [ 5.880569940825811, 51.803354470456803 ], [ 5.88102478440938, 51.801449424181968 ], [ 5.881449647984093, 51.801063194926087 ], [ 5.881528068348891, 51.800991908935394 ], [ 5.883051638621643, 51.799606815826344 ], [ 5.883947947330006, 51.798788859142277 ], [ 5.884018864644671, 51.79872413789144 ], [ 5.885314702828296, 51.797541511156624 ], [ 5.885901955489014, 51.797005734298587 ], [ 5.886100520585396, 51.796835887199393 ], [ 5.887197858954762, 51.795640501790615 ], [ 5.887267010833289, 51.795565161600294 ], [ 5.88744278293618, 51.795373675083709 ], [ 5.887418371614137, 51.79380979142455 ], [ 5.887415928357281, 51.793707161711495 ], [ 5.887408973001255, 51.793414722268338 ], [ 5.887405797397656, 51.793281354867055 ], [ 5.887393298843002, 51.792822426340088 ], [ 5.887374215251556, 51.792041655199959 ], [ 5.887354549789739, 51.791383463221813 ], [ 5.887347853134939, 51.790664758932593 ], [ 5.887319183793474, 51.789474339638765 ], [ 5.887279546635916, 51.787843699008022 ], [ 5.88727414248024, 51.787562883927443 ], [ 5.887233589768325, 51.785878108815865 ], [ 5.88723353975495, 51.785876212445565 ], [ 5.887230690428026, 51.785757791490852 ], [ 5.887204759525968, 51.785558841698233 ], [ 5.887210158416647, 51.785281099496473 ], [ 5.887210974513908, 51.785239676784656 ], [ 5.887217785239073, 51.785142868035656 ], [ 5.887238980332076, 51.785072882684148 ], [ 5.88725354373862, 51.784991680939449 ], [ 5.887262348681368, 51.784954484723293 ], [ 5.887274807883371, 51.784901794638252 ], [ 5.887285301083728, 51.7848574003796 ], [ 5.887309299720628, 51.784756653227554 ], [ 5.887341877225927, 51.784648004491416 ], [ 5.887431220904324, 51.78440989416309 ], [ 5.887502915654218, 51.784232226174026 ], [ 5.887546865584132, 51.784123277161029 ], [ 5.887547740242359, 51.784121125164745 ], [ 5.887623073211842, 51.783934453016322 ], [ 5.887724738779963, 51.783678627338631 ], [ 5.887830041875781, 51.783412458184053 ], [ 5.887889329740963, 51.783258428866908 ], [ 5.887923079738337, 51.783170763202598 ], [ 5.887941715476101, 51.783122361156167 ], [ 5.887950969914806, 51.783098322196537 ], [ 5.887977930313982, 51.783028294086265 ], [ 5.887978887792384, 51.782986619072922 ], [ 5.88798359129861, 51.782980819343045 ], [ 5.888074335571329, 51.782892910160513 ], [ 5.888345370833646, 51.782636369152065 ], [ 5.888444684892807, 51.782541214222974 ], [ 5.888530367812982, 51.782460957598637 ], [ 5.888583788593732, 51.782407822525457 ], [ 5.888882798433857, 51.782119709653628 ], [ 5.889022617416896, 51.781988318807855 ], [ 5.889263535893635, 51.781761117329211 ], [ 5.889452825525259, 51.781578818643204 ], [ 5.889530611613659, 51.781506792660963 ], [ 5.889684776139873, 51.781358728687728 ], [ 5.889813118208957, 51.781236895956418 ], [ 5.889962966817658, 51.781095726355126 ], [ 5.890141144322133, 51.78092587838804 ], [ 5.890232910210545, 51.780838061981136 ], [ 5.890328987201674, 51.780750919117111 ], [ 5.890446573134537, 51.780636870981951 ], [ 5.890592838743746, 51.780497028264385 ], [ 5.890722965521963, 51.780374539671229 ], [ 5.89090794400065, 51.780199124346467 ], [ 5.89103914052305, 51.780073961195704 ], [ 5.891321261156722, 51.779808736468631 ], [ 5.891497623354553, 51.779643334538761 ], [ 5.891692630156782, 51.779458140196276 ], [ 5.891795509077093, 51.779361654682653 ], [ 5.891995530590372, 51.779171575428435 ], [ 5.892194830142278, 51.778987053862743 ], [ 5.89234180415957, 51.778845435107826 ], [ 5.892482674382105, 51.778711374884537 ], [ 5.892630922954508, 51.778572446831319 ], [ 5.89269558358665, 51.778511953673963 ], [ 5.892703339075767, 51.778505754080221 ], [ 5.892809211099477, 51.778403906554693 ], [ 5.892920754226971, 51.778301279426941 ], [ 5.892927853874316, 51.778294750070643 ], [ 5.893082331913101, 51.778153349669324 ], [ 5.89323717583799, 51.778011066601103 ], [ 5.893262935857006, 51.77798745031626 ], [ 5.893295795591873, 51.777957322623344 ], [ 5.893367624943066, 51.777891458932189 ], [ 5.893409258369337, 51.777852924973807 ], [ 5.893652551285637, 51.77762559612394 ], [ 5.893708039883867, 51.777569249791206 ], [ 5.893867250114341, 51.777417419129726 ], [ 5.893909357049208, 51.777377256013118 ], [ 5.893979438873425, 51.777321098147986 ], [ 5.8957263632515, 51.775678675280446 ], [ 5.897335569735065, 51.774152741668132 ], [ 5.897400503952062, 51.77409193005775 ], [ 5.897413966691228, 51.774079314433905 ], [ 5.897443194149503, 51.774052643979189 ], [ 5.897531205892641, 51.773972307547908 ], [ 5.898461969338645, 51.773122499408281 ], [ 5.899421971926447, 51.772233743285042 ], [ 5.899885130665954, 51.771823151992692 ], [ 5.899899801844867, 51.771808625213701 ], [ 5.899933012263981, 51.771775716610989 ], [ 5.900011379219633, 51.771687636357598 ], [ 5.900445822903763, 51.771204217176575 ], [ 5.900794273881271, 51.770811508296234 ], [ 5.900816188765709, 51.770786819539509 ], [ 5.900926606330137, 51.770662383254134 ], [ 5.901036693648854, 51.770543350440491 ], [ 5.901815373415926, 51.769668249514126 ], [ 5.901936001228028, 51.769531273300977 ], [ 5.902169369058763, 51.769272177302689 ], [ 5.902555324318752, 51.768843667522447 ], [ 5.902938094838111, 51.76841728275722 ], [ 5.903756327303506, 51.767505797466178 ], [ 5.904173225605446, 51.767040607242087 ], [ 5.904296097875253, 51.766903510754723 ], [ 5.904675852944735, 51.766479794046283 ], [ 5.905194517407697, 51.765892337507886 ], [ 5.905375798988283, 51.76568381911455 ], [ 5.905404983729313, 51.765664400591554 ], [ 5.906272580762073, 51.765087314746879 ], [ 5.906722643756721, 51.764787852561227 ], [ 5.907131636379083, 51.764517648882041 ], [ 5.907152066114697, 51.764504183241755 ], [ 5.907194377911581, 51.764476319682927 ], [ 5.907251396906694, 51.76443872812596 ], [ 5.907279913067317, 51.764417999762252 ], [ 5.90729615129926, 51.764407878471033 ], [ 5.907366986934222, 51.764363744776631 ], [ 5.907526645418621, 51.764258786504605 ], [ 5.90757232355512, 51.764225164158312 ], [ 5.907659967939341, 51.764180245555366 ], [ 5.907669040530136, 51.764175594123962 ], [ 5.908034434682251, 51.763988320747501 ], [ 5.908062199027222, 51.763974049333747 ], [ 5.908709689750017, 51.763641378903671 ], [ 5.909342914632522, 51.763316022199646 ], [ 5.909863536590759, 51.763048511418248 ], [ 5.909927026290251, 51.763015887338064 ], [ 5.910571307018407, 51.7626848297799 ], [ 5.911114593853397, 51.762405661830918 ], [ 5.91133039510994, 51.762083525767288 ], [ 5.911347353216915, 51.76205820997648 ], [ 5.911491218713755, 51.761843440370654 ], [ 5.911512846237422, 51.761811101556702 ], [ 5.911527596938491, 51.761789058470725 ], [ 5.912018987579145, 51.761054576794344 ], [ 5.912148013223316, 51.760858416249484 ], [ 5.912229136134553, 51.760739466411735 ], [ 5.91240770630021, 51.760473035532073 ], [ 5.91267451366702, 51.760074543913504 ], [ 5.913100356688235, 51.759438533703403 ], [ 5.913272193835303, 51.759181875282607 ], [ 5.913393275889946, 51.759001020566629 ], [ 5.91338306840899, 51.758509390470373 ], [ 5.913372621656909, 51.758109031581299 ], [ 5.913371419717719, 51.758036993415729 ], [ 5.913362789270556, 51.757519082531346 ], [ 5.91336078350647, 51.757399210681889 ], [ 5.913331968505097, 51.755708846353286 ], [ 5.913329390530303, 51.755515018896673 ], [ 5.913400226543611, 51.755398073836716 ], [ 5.913761790383637, 51.754801180073883 ], [ 5.913784953038672, 51.754763054235568 ], [ 5.914060469261321, 51.754308071553822 ], [ 5.915281819391303, 51.752291815790095 ], [ 5.915284817161443, 51.752286858551294 ], [ 5.916211553762223, 51.752069406012566 ], [ 5.916395508781711, 51.752026328991711 ], [ 5.916462797386927, 51.752010636611971 ], [ 5.916521998056841, 51.751996832379383 ], [ 5.916598428438282, 51.751978977317037 ], [ 5.916645453553079, 51.751967987527678 ], [ 5.917610793151152, 51.751742475441567 ], [ 5.919226605978102, 51.751368900877374 ], [ 5.919299599028467, 51.751352021432496 ], [ 5.919442739797698, 51.751318922508887 ], [ 5.922037623433979, 51.750718929303986 ], [ 5.922093861463535, 51.750705926764098 ], [ 5.92218827016567, 51.750684093906905 ], [ 5.923210189328366, 51.750448515543901 ], [ 5.92327824079707, 51.75043282473311 ], [ 5.924036220438262, 51.750258085724163 ], [ 5.924778024540888, 51.75008630134392 ], [ 5.926839810147308, 51.749608805517319 ], [ 5.926867407766149, 51.749602413358161 ], [ 5.926932697543342, 51.749587290428991 ], [ 5.926948828676558, 51.749583557762406 ], [ 5.926978072542918, 51.749576780472445 ], [ 5.926985885393593, 51.749574973726411 ], [ 5.926993524905948, 51.749573203732801 ], [ 5.927727926891969, 51.74940310657896 ], [ 5.930200900476486, 51.748830298169693 ], [ 5.933184616967421, 51.748139105509921 ], [ 5.933267084178861, 51.74811500026798 ], [ 5.933323245547466, 51.748098585988373 ], [ 5.933286927102022, 51.748077020784926 ], [ 5.933282434712563, 51.748074354125727 ], [ 5.933142980813238, 51.747991535683731 ], [ 5.932527862017636, 51.747620060227881 ], [ 5.931845126461361, 51.747206397709988 ], [ 5.930738179786748, 51.746535189558529 ], [ 5.930656057721118, 51.746435059796873 ], [ 5.930287541723099, 51.745982124340848 ], [ 5.930249475025341, 51.745935335264605 ], [ 5.930242096934049, 51.745926272981926 ], [ 5.930195718360126, 51.745899926564434 ], [ 5.93006494780409, 51.745124401605736 ], [ 5.93001456437311, 51.744823875972706 ], [ 5.929948271667826, 51.744428468273433 ], [ 5.930323534668463, 51.744269985893943 ], [ 5.930713219917337, 51.744106950081786 ], [ 5.931153576399108, 51.743830547000037 ], [ 5.931850714299203, 51.743541542313999 ], [ 5.931514328796664, 51.743421615369108 ], [ 5.93152657471307, 51.743405693568505 ], [ 5.93177307341735, 51.743085182548825 ], [ 5.93180709130546, 51.74305565861809 ], [ 5.931987732070215, 51.74312377051907 ], [ 5.932114622364687, 51.743172393131843 ], [ 5.932307772955456, 51.743203215504352 ], [ 5.932258747404084, 51.743170967704728 ], [ 5.932252944529311, 51.743069288484854 ], [ 5.932197517011764, 51.743056045414491 ], [ 5.932320994954986, 51.742753651161749 ], [ 5.932560944914776, 51.742450337163717 ], [ 5.93275056650277, 51.742007142407175 ], [ 5.932770975625751, 51.741951497705223 ], [ 5.932766879663461, 51.74193844732492 ], [ 5.933144161222415, 51.741842857725324 ], [ 5.93367744940481, 51.741919363562722 ], [ 5.934249644588538, 51.74200304700517 ], [ 5.93436718221287, 51.741981293996766 ], [ 5.934449274265662, 51.741966636660969 ], [ 5.934486683406942, 51.74195789576909 ], [ 5.934601766115854, 51.741894896221993 ], [ 5.934622604094439, 51.741876012645321 ], [ 5.934783222586113, 51.741711516370444 ], [ 5.9349586883677, 51.741466484316469 ], [ 5.935222578705733, 51.741129974690303 ], [ 5.935890640838072, 51.741028611302333 ], [ 5.936133812564968, 51.741057359408458 ], [ 5.936700131059653, 51.741313028740436 ], [ 5.937072655446594, 51.741485399607001 ], [ 5.937286382427631, 51.741528575427978 ], [ 5.937471064019191, 51.741564525596331 ], [ 5.937820662653907, 51.741578100886841 ], [ 5.938298605794927, 51.741593147887855 ] ] ] ] } }
]
}
